{"type": "FeatureCollection", "crs": {"type": "name", "properties": {"name": "urn:ogc:def:crs:OGC:1.3:CRS84"}}, "features": [{"type": "Feature", "properties": {"station_id": "0400120EN004", "station_name": "板橋中正路", "city": "新北市", "district": "板橋區", "noise_category": "environmental", "monitoring_type": "manual", "control_zone": "三", "standard_day_db": 60.0, "standard_evening_db": 55.0, "standard_night_db": 50.0, "total_exceed_count": 0, "source_name": "新北市環境保護局", "latest_day_db": 60.5, "latest_evening_db": 56.4, "latest_night_db": 50.0}, "geometry": {"type": "Point", "coordinates": [121.455754, 25.023488]}}, {"type": "Feature", "properties": {"station_id": "0400120TN002", "station_name": "板橋永豐街", "city": "新北市", "district": "板橋區", "noise_category": "traffic", "monitoring_type": "manual", "control_zone": "三", "standard_day_db": 74.0, "standard_evening_db": 70.0, "standard_night_db": 67.0, "total_exceed_count": 0, "source_name": "新北市環境保護局", "latest_day_db": 72.8, "latest_evening_db": 70.8, "latest_night_db": 67.4}, "geometry": {"type": "Point", "coordinates": [121.471831, 25.019198]}}, {"type": "Feature", "properties": {"station_id": "0400120TN004", "station_name": "板橋陽明街", "city": "新北市", "district": "板橋區", "noise_category": "traffic", "monitoring_type": "manual", "control_zone": "二", "standard_day_db": 71.0, "standard_evening_db": 69.0, "standard_night_db": 63.0, "total_exceed_count": 0, "source_name": "新北市環境保護局", "latest_day_db": 68.9, "latest_evening_db": 67.6, "latest_night_db": 64.2}, "geometry": {"type": "Point", "coordinates": [121.462841, 25.025134]}}, {"type": "Feature", "properties": {"station_id": "0400126TN001", "station_name": "板橋地政事務所站", "city": "新北市", "district": "板橋區", "noise_category": "traffic", "monitoring_type": "manual", "control_zone": "三", "standard_day_db": 74.0, "standard_evening_db": 70.0, "standard_night_db": 67.0, "total_exceed_count": 0, "source_name": "新北市環境保護局", "latest_day_db": 70.0, "latest_evening_db": 69.0, "latest_night_db": 65.0}, "geometry": {"type": "Point", "coordinates": [121.274851, 25.002992]}}, {"type": "Feature", "properties": {"station_id": "0400220TN001", "station_name": "三重三民街", "city": "新北市", "district": "三重區", "noise_category": "traffic", "monitoring_type": "manual", "control_zone": "三", "standard_day_db": 74.0, "standard_evening_db": 70.0, "standard_night_db": 67.0, "total_exceed_count": 0, "source_name": "新北市環境保護局", "latest_day_db": 68.5, "latest_evening_db": 62.1, "latest_night_db": 62.9}, "geometry": {"type": "Point", "coordinates": [121.482802, 25.065283]}}, {"type": "Feature", "properties": {"station_id": "0400320EN001", "station_name": "仁愛公園", "city": "新北市", "district": "永和區", "noise_category": "environmental", "monitoring_type": "manual", "control_zone": "三", "standard_day_db": 60.0, "standard_evening_db": 55.0, "standard_night_db": 50.0, "total_exceed_count": 0, "source_name": "新北市環境保護局", "latest_day_db": 56.1, "latest_evening_db": 53.0, "latest_night_db": 48.3}, "geometry": {"type": "Point", "coordinates": [121.506965, 25.011515]}}, {"type": "Feature", "properties": {"station_id": "0400420EN001", "station_name": "四號公園", "city": "新北市", "district": "中和區", "noise_category": "environmental", "monitoring_type": "manual", "control_zone": "三", "standard_day_db": 60.0, "standard_evening_db": 55.0, "standard_night_db": 50.0, "total_exceed_count": 0, "source_name": "新北市環境保護局", "latest_day_db": 54.0, "latest_evening_db": 51.8, "latest_night_db": 47.8}, "geometry": {"type": "Point", "coordinates": [121.513767, 25.003581]}}, {"type": "Feature", "properties": {"station_id": "0400620EN004", "station_name": "新莊化成路", "city": "新北市", "district": "新莊區", "noise_category": "environmental", "monitoring_type": "manual", "control_zone": "四", "standard_day_db": 65.0, "standard_evening_db": 60.0, "standard_night_db": 55.0, "total_exceed_count": 0, "source_name": "新北市環境保護局", "latest_day_db": 57.8, "latest_evening_db": 53.5, "latest_night_db": 49.7}, "geometry": {"type": "Point", "coordinates": [121.466791, 25.058729]}}, {"type": "Feature", "properties": {"station_id": "0400720TN001", "station_name": "樹林中正路", "city": "新北市", "district": "樹林區", "noise_category": "traffic", "monitoring_type": "manual", "control_zone": "四", "standard_day_db": 76.0, "standard_evening_db": 75.0, "standard_night_db": 72.0, "total_exceed_count": 0, "source_name": "新北市環境保護局", "latest_day_db": 73.6, "latest_evening_db": 71.0, "latest_night_db": 69.2}, "geometry": {"type": "Point", "coordinates": [121.42019, 25.005768]}}, {"type": "Feature", "properties": {"station_id": "0400920TN001", "station_name": "三峽大德路", "city": "新北市", "district": "三峽區", "noise_category": "traffic", "monitoring_type": "manual", "control_zone": "二", "standard_day_db": 71.0, "standard_evening_db": 69.0, "standard_night_db": 63.0, "total_exceed_count": 0, "source_name": "新北市環境保護局", "latest_day_db": 65.7, "latest_evening_db": 64.3, "latest_night_db": 59.1}, "geometry": {"type": "Point", "coordinates": [121.376824, 24.943982]}}, {"type": "Feature", "properties": {"station_id": "0401020EN002", "station_name": "淡水休閒農場", "city": "新北市", "district": "淡水區", "noise_category": "environmental", "monitoring_type": "manual", "control_zone": "三", "standard_day_db": 60.0, "standard_evening_db": 55.0, "standard_night_db": 50.0, "total_exceed_count": 0, "source_name": "新北市環境保護局", "latest_day_db": 57.0, "latest_evening_db": 50.0, "latest_night_db": 54.8}, "geometry": {"type": "Point", "coordinates": [121.459308, 25.138447]}}, {"type": "Feature", "properties": {"station_id": "0401020TN003", "station_name": "淡水巴拉卡公路", "city": "新北市", "district": "淡水區", "noise_category": "traffic", "monitoring_type": "manual", "control_zone": "一", "standard_day_db": 71.0, "standard_evening_db": 69.0, "standard_night_db": 63.0, "total_exceed_count": 0, "source_name": "新北市環境保護局", "latest_day_db": 55.2, "latest_evening_db": 54.0, "latest_night_db": 50.0}, "geometry": {"type": "Point", "coordinates": [121.511428, 25.184418]}}, {"type": "Feature", "properties": {"station_id": "0401020TN004", "station_name": "淡水沙崙路", "city": "新北市", "district": "淡水區", "noise_category": "traffic", "monitoring_type": "manual", "control_zone": "二", "standard_day_db": 71.0, "standard_evening_db": 69.0, "standard_night_db": 63.0, "total_exceed_count": 0, "source_name": "新北市環境保護局", "latest_day_db": 66.5, "latest_evening_db": 63.0, "latest_night_db": 58.9}, "geometry": {"type": "Point", "coordinates": [121.422014, 25.181913]}}, {"type": "Feature", "properties": {"station_id": "0401120EN001", "station_name": "汐止長青路", "city": "新北市", "district": "汐止區", "noise_category": "environmental", "monitoring_type": "manual", "control_zone": "二", "standard_day_db": 55.0, "standard_evening_db": 50.0, "standard_night_db": 45.0, "total_exceed_count": 0, "source_name": "新北市環境保護局", "latest_day_db": 49.3, "latest_evening_db": 50.0, "latest_night_db": 50.5}, "geometry": {"type": "Point", "coordinates": [121.613975, 25.111521]}}, {"type": "Feature", "properties": {"station_id": "0401120EN002", "station_name": "伴吾社區", "city": "新北市", "district": "新店區", "noise_category": "environmental", "monitoring_type": "manual", "control_zone": "二", "standard_day_db": 55.0, "standard_evening_db": 50.0, "standard_night_db": 45.0, "total_exceed_count": 0, "source_name": "新北市環境保護局", "latest_day_db": 47.7, "latest_evening_db": 53.5, "latest_night_db": 42.0}, "geometry": {"type": "Point", "coordinates": [121.478743, 24.962395]}}, {"type": "Feature", "properties": {"station_id": "0401220TN001", "station_name": "瑞芳坑子內路", "city": "新北市", "district": "瑞芳區", "noise_category": "traffic", "monitoring_type": "manual", "control_zone": "二", "standard_day_db": 71.0, "standard_evening_db": 69.0, "standard_night_db": 63.0, "total_exceed_count": 0, "source_name": "新北市環境保護局", "latest_day_db": 69.2, "latest_evening_db": 62.1, "latest_night_db": 60.9}, "geometry": {"type": "Point", "coordinates": [121.793704, 25.10677]}}, {"type": "Feature", "properties": {"station_id": "0401320TN003", "station_name": "土城忠承路", "city": "新北市", "district": "土城區", "noise_category": "traffic", "monitoring_type": "manual", "control_zone": "四", "standard_day_db": 76.0, "standard_evening_db": 75.0, "standard_night_db": 72.0, "total_exceed_count": 0, "source_name": "新北市環境保護局", "latest_day_db": 68.8, "latest_evening_db": 64.2, "latest_night_db": 60.0}, "geometry": {"type": "Point", "coordinates": [121.440186, 24.966698]}}, {"type": "Feature", "properties": {"station_id": "0401420EN001", "station_name": "蘆洲三民公園(第4季啟用)", "city": "新北市", "district": "蘆洲區", "noise_category": "environmental", "monitoring_type": "manual", "control_zone": "三", "standard_day_db": 60.0, "standard_evening_db": 55.0, "standard_night_db": 50.0, "total_exceed_count": 0, "source_name": "新北市環境保護局", "latest_day_db": 58.0, "latest_evening_db": 55.4, "latest_night_db": 51.2}, "geometry": {"type": "Point", "coordinates": [121.472, 25.084]}}, {"type": "Feature", "properties": {"station_id": "0401520EN001", "station_name": "五股污水處理廠", "city": "新北市", "district": "五股區", "noise_category": "environmental", "monitoring_type": "manual", "control_zone": "四", "standard_day_db": 65.0, "standard_evening_db": 60.0, "standard_night_db": 55.0, "total_exceed_count": 0, "source_name": "新北市環境保護局", "latest_day_db": 61.0, "latest_evening_db": 60.0, "latest_night_db": 59.0}, "geometry": {"type": "Point", "coordinates": [121.446717, 25.068783]}}, {"type": "Feature", "properties": {"station_id": "0401720EN001", "station_name": "林口竹林山寺", "city": "新北市", "district": "林口區", "noise_category": "environmental", "monitoring_type": "manual", "control_zone": "二", "standard_day_db": 55.0, "standard_evening_db": 50.0, "standard_night_db": 45.0, "total_exceed_count": 0, "source_name": "新北市環境保護局", "latest_day_db": 52.8, "latest_evening_db": 49.2, "latest_night_db": 45.1}, "geometry": {"type": "Point", "coordinates": [121.389844, 25.08298]}}, {"type": "Feature", "properties": {"station_id": "0402120EN001", "station_name": "三芝大屯自然公園(1)", "city": "新北市", "district": "三芝區", "noise_category": "environmental", "monitoring_type": "manual", "control_zone": "一", "standard_day_db": 55.0, "standard_evening_db": 50.0, "standard_night_db": 45.0, "total_exceed_count": 0, "source_name": "新北市環境保護局", "latest_day_db": 46.5, "latest_evening_db": 47.8, "latest_night_db": 45.6}, "geometry": {"type": "Point", "coordinates": [121.522779, 25.187544]}}, {"type": "Feature", "properties": {"station_id": "0402320TN001", "station_name": "八里中華路", "city": "新北市", "district": "八里區", "noise_category": "traffic", "monitoring_type": "manual", "control_zone": "三", "standard_day_db": 74.0, "standard_evening_db": 70.0, "standard_night_db": 67.0, "total_exceed_count": 0, "source_name": "新北市環境保護局", "latest_day_db": 71.8, "latest_evening_db": 68.3, "latest_night_db": 66.0}, "geometry": {"type": "Point", "coordinates": [121.400878, 25.146052]}}, {"type": "Feature", "properties": {"station_id": "0402420EN001", "station_name": "平溪區平溪街", "city": "新北市", "district": "平溪區", "noise_category": "environmental", "monitoring_type": "manual", "control_zone": "二", "standard_day_db": 55.0, "standard_evening_db": 50.0, "standard_night_db": 45.0, "total_exceed_count": 0, "source_name": "新北市環境保護局", "latest_day_db": 54.9, "latest_evening_db": 49.0, "latest_night_db": 48.8}, "geometry": {"type": "Point", "coordinates": [121.736932, 25.02725]}}, {"type": "Feature", "properties": {"station_id": "0402620EN001", "station_name": "貢寮衛生所(從第三季始取消)", "city": "新北市", "district": "貢寮區", "noise_category": "environmental", "monitoring_type": "manual", "control_zone": "三", "standard_day_db": 60.0, "standard_evening_db": 55.0, "standard_night_db": 50.0, "total_exceed_count": 0, "source_name": "新北市環境保護局", "latest_day_db": 63.4, "latest_evening_db": 53.7, "latest_night_db": 54.3}, "geometry": {"type": "Point", "coordinates": [121.909634, 25.022545]}}, {"type": "Feature", "properties": {"station_id": "0402720EN001", "station_name": "金山國家公園(1)", "city": "新北市", "district": "金山區", "noise_category": "environmental", "monitoring_type": "manual", "control_zone": "一", "standard_day_db": 55.0, "standard_evening_db": 50.0, "standard_night_db": 45.0, "total_exceed_count": 0, "source_name": "新北市環境保護局", "latest_day_db": 49.3, "latest_evening_db": 49.4, "latest_night_db": 48.9}, "geometry": {"type": "Point", "coordinates": [121.592954, 25.193833]}}, {"type": "Feature", "properties": {"station_id": "0402726TN001", "station_name": "國家公園站(金山)(註)", "city": "新北市", "district": "金山區", "noise_category": "traffic", "monitoring_type": "manual", "control_zone": "一", "standard_day_db": 71.0, "standard_evening_db": 69.0, "standard_night_db": 63.0, "total_exceed_count": 0, "source_name": "新北市環境保護局", "latest_day_db": 67.4, "latest_evening_db": 60.2, "latest_night_db": 63.2}, "geometry": {"type": "Point", "coordinates": [121.547756, 25.155822]}}, {"type": "Feature", "properties": {"station_id": "2533520EN012", "station_name": "長興點", "city": "臺北市", "district": "大安區", "noise_category": "environmental", "monitoring_type": "manual", "control_zone": "二", "standard_day_db": 55.0, "standard_evening_db": 50.0, "standard_night_db": 45.0, "total_exceed_count": 0, "source_name": "臺北市環境保護局", "latest_day_db": 54.9, "latest_evening_db": 51.1, "latest_night_db": 48.7}, "geometry": {"type": "Point", "coordinates": [121.5504, 25.014569]}}, {"type": "Feature", "properties": {"station_id": "2533520TN307", "station_name": "新生點", "city": "臺北市", "district": "大安區", "noise_category": "traffic", "monitoring_type": "manual", "control_zone": "三", "standard_day_db": 74.0, "standard_evening_db": 70.0, "standard_night_db": 67.0, "total_exceed_count": 0, "source_name": "臺北市環境保護局", "latest_day_db": 67.6, "latest_evening_db": 66.2, "latest_night_db": 57.8}, "geometry": {"type": "Point", "coordinates": [121.5331, 25.031753]}}, {"type": "Feature", "properties": {"station_id": "2533720EN013", "station_name": "福星點", "city": "臺北市", "district": "萬華區", "noise_category": "environmental", "monitoring_type": "manual", "control_zone": "三", "standard_day_db": 60.0, "standard_evening_db": 55.0, "standard_night_db": 50.0, "total_exceed_count": 0, "source_name": "臺北市環境保護局", "latest_day_db": 51.7, "latest_evening_db": 49.6, "latest_night_db": 47.7}, "geometry": {"type": "Point", "coordinates": [121.508, 25.046691]}}, {"type": "Feature", "properties": {"station_id": "2533720TN207", "station_name": "青年點", "city": "臺北市", "district": "萬華區", "noise_category": "traffic", "monitoring_type": "manual", "control_zone": "二", "standard_day_db": 71.0, "standard_evening_db": 69.0, "standard_night_db": 63.0, "total_exceed_count": 0, "source_name": "臺北市環境保護局", "latest_day_db": 61.5, "latest_evening_db": 59.5, "latest_night_db": 57.5}, "geometry": {"type": "Point", "coordinates": [121.5037, 25.020467]}}, {"type": "Feature", "properties": {"station_id": "2533820EN007", "station_name": "太原點", "city": "臺北市", "district": "大同區", "noise_category": "environmental", "monitoring_type": "manual", "control_zone": "三", "standard_day_db": 60.0, "standard_evening_db": 55.0, "standard_night_db": 50.0, "total_exceed_count": 0, "source_name": "臺北市環境保護局", "latest_day_db": 50.4, "latest_evening_db": 47.5, "latest_night_db": 43.6}, "geometry": {"type": "Point", "coordinates": [121.5166, 25.054378]}}, {"type": "Feature", "properties": {"station_id": "2533820EN202", "station_name": "永樂點", "city": "臺北市", "district": "大同區", "noise_category": "environmental", "monitoring_type": "manual", "control_zone": "二", "standard_day_db": 55.0, "standard_evening_db": 50.0, "standard_night_db": 45.0, "total_exceed_count": 0, "source_name": "臺北市環境保護局", "latest_day_db": 55.2, "latest_evening_db": 51.6, "latest_night_db": 46.6}, "geometry": {"type": "Point", "coordinates": [121.509977, 25.061281]}}, {"type": "Feature", "properties": {"station_id": "2533920TN404", "station_name": "大同點", "city": "臺北市", "district": "中山區", "noise_category": "traffic", "monitoring_type": "manual", "control_zone": "四", "standard_day_db": 76.0, "standard_evening_db": 75.0, "standard_night_db": 72.0, "total_exceed_count": 0, "source_name": "臺北市環境保護局", "latest_day_db": 73.2, "latest_evening_db": 73.1, "latest_night_db": 68.4}, "geometry": {"type": "Point", "coordinates": [121.5222, 25.066522]}}, {"type": "Feature", "properties": {"station_id": "2534020TN210", "station_name": "萬興點", "city": "臺北市", "district": "文山區", "noise_category": "traffic", "monitoring_type": "manual", "control_zone": "二", "standard_day_db": 71.0, "standard_evening_db": 69.0, "standard_night_db": 63.0, "total_exceed_count": 0, "source_name": "臺北市環境保護局", "latest_day_db": 66.9, "latest_evening_db": 65.3, "latest_night_db": 59.5}, "geometry": {"type": "Point", "coordinates": [121.576906, 24.9897]}}, {"type": "Feature", "properties": {"station_id": "2534120TN209", "station_name": "舊二點", "city": "臺北市", "district": "南港區", "noise_category": "traffic", "monitoring_type": "manual", "control_zone": "二", "standard_day_db": 71.0, "standard_evening_db": 69.0, "standard_night_db": 63.0, "total_exceed_count": 0, "source_name": "臺北市環境保護局", "latest_day_db": 62.5, "latest_evening_db": 59.7, "latest_night_db": 56.5}, "geometry": {"type": "Point", "coordinates": [121.6207, 25.041386]}}, {"type": "Feature", "properties": {"station_id": "2534120TN405", "station_name": "南港點", "city": "臺北市", "district": "南港區", "noise_category": "traffic", "monitoring_type": "manual", "control_zone": "四", "standard_day_db": 76.0, "standard_evening_db": 75.0, "standard_night_db": 72.0, "total_exceed_count": 0, "source_name": "臺北市環境保護局", "latest_day_db": 68.4, "latest_evening_db": 65.7, "latest_night_db": 59.6}, "geometry": {"type": "Point", "coordinates": [121.5895, 25.053381]}}, {"type": "Feature", "properties": {"station_id": "2534220EN005", "station_name": "安康點", "city": "臺北市", "district": "內湖區", "noise_category": "environmental", "monitoring_type": "manual", "control_zone": "四", "standard_day_db": 65.0, "standard_evening_db": 60.0, "standard_night_db": 55.0, "total_exceed_count": 0, "source_name": "臺北市環境保護局", "latest_day_db": 57.2, "latest_evening_db": 55.9, "latest_night_db": 50.4}, "geometry": {"type": "Point", "coordinates": [121.6042, 25.061601]}}, {"type": "Feature", "properties": {"station_id": "2534220TN308", "station_name": "民權點", "city": "臺北市", "district": "內湖區", "noise_category": "traffic", "monitoring_type": "manual", "control_zone": "三", "standard_day_db": 74.0, "standard_evening_db": 70.0, "standard_night_db": 67.0, "total_exceed_count": 0, "source_name": "臺北市環境保護局", "latest_day_db": 65.9, "latest_evening_db": 64.0, "latest_night_db": 57.6}, "geometry": {"type": "Point", "coordinates": [121.601142, 25.0671]}}, {"type": "Feature", "properties": {"station_id": "2534320EN008", "station_name": "社子點", "city": "臺北市", "district": "士林區", "noise_category": "environmental", "monitoring_type": "manual", "control_zone": "三", "standard_day_db": 60.0, "standard_evening_db": 55.0, "standard_night_db": 50.0, "total_exceed_count": 0, "source_name": "臺北市環境保護局", "latest_day_db": 47.8, "latest_evening_db": 42.9, "latest_night_db": 41.2}, "geometry": {"type": "Point", "coordinates": [121.4881, 25.103161]}}, {"type": "Feature", "properties": {"station_id": "2534320TN103", "station_name": "格致點", "city": "臺北市", "district": "士林區", "noise_category": "traffic", "monitoring_type": "manual", "control_zone": "一", "standard_day_db": null, "standard_evening_db": null, "standard_night_db": null, "total_exceed_count": 0, "source_name": "臺北市環境保護局", "latest_day_db": 61.1, "latest_evening_db": 57.3, "latest_night_db": 57.3}, "geometry": {"type": "Point", "coordinates": [121.5125, 25.114931]}}, {"type": "Feature", "properties": {"station_id": "2534320TN208", "station_name": "至善點", "city": "臺北市", "district": "士林區", "noise_category": "traffic", "monitoring_type": "manual", "control_zone": "二", "standard_day_db": 71.0, "standard_evening_db": 69.0, "standard_night_db": 63.0, "total_exceed_count": 0, "source_name": "臺北市環境保護局", "latest_day_db": 67.4, "latest_evening_db": 66.0, "latest_night_db": 62.5}, "geometry": {"type": "Point", "coordinates": [121.5575, 25.106714]}}, {"type": "Feature", "properties": {"station_id": "2534420EN010", "station_name": "關渡點", "city": "臺北市", "district": "北投區", "noise_category": "environmental", "monitoring_type": "manual", "control_zone": "二", "standard_day_db": 55.0, "standard_evening_db": 50.0, "standard_night_db": 45.0, "total_exceed_count": 0, "source_name": "臺北市環境保護局", "latest_day_db": 50.4, "latest_evening_db": 42.7, "latest_night_db": 41.1}, "geometry": {"type": "Point", "coordinates": [121.472486, 25.119811]}}, {"type": "Feature", "properties": {"station_id": "2534420EN011", "station_name": "湖田點", "city": "臺北市", "district": "北投區", "noise_category": "environmental", "monitoring_type": "manual", "control_zone": "一", "standard_day_db": 55.0, "standard_evening_db": 50.0, "standard_night_db": 45.0, "total_exceed_count": 0, "source_name": "臺北市環境保護局", "latest_day_db": 40.8, "latest_evening_db": 43.3, "latest_night_db": 40.7}, "geometry": {"type": "Point", "coordinates": [121.538867, 25.169251]}}, {"type": "Feature", "properties": {"station_id": "2534420EN012", "station_name": "鞍部點", "city": "臺北市", "district": "北投區", "noise_category": "environmental", "monitoring_type": "manual", "control_zone": "一", "standard_day_db": 55.0, "standard_evening_db": 50.0, "standard_night_db": 45.0, "total_exceed_count": 0, "source_name": "臺北市環境保護局", "latest_day_db": 42.4, "latest_evening_db": 38.4, "latest_night_db": 38.1}, "geometry": {"type": "Point", "coordinates": [121.527797, 25.182664]}}, {"type": "Feature", "properties": {"station_id": "2534420EN301", "station_name": "洲美點", "city": "臺北市", "district": "北投區", "noise_category": "environmental", "monitoring_type": "manual", "control_zone": "三", "standard_day_db": 60.0, "standard_evening_db": 55.0, "standard_night_db": 50.0, "total_exceed_count": 0, "source_name": "臺北市環境保護局", "latest_day_db": 48.2, "latest_evening_db": 45.1, "latest_night_db": 45.8}, "geometry": {"type": "Point", "coordinates": [121.502, 25.108358]}}, {"type": "Feature", "properties": {"station_id": "2534420TN105", "station_name": "陽金點", "city": "臺北市", "district": "北投區", "noise_category": "traffic", "monitoring_type": "manual", "control_zone": "一", "standard_day_db": null, "standard_evening_db": null, "standard_night_db": null, "total_exceed_count": 0, "source_name": "臺北市環境保護局", "latest_day_db": 59.4, "latest_evening_db": 58.6, "latest_night_db": 60.5}, "geometry": {"type": "Point", "coordinates": [121.5433, 25.179506]}}, {"type": "Feature", "properties": {"station_id": "2534420TN304", "station_name": "大業點", "city": "臺北市", "district": "北投區", "noise_category": "traffic", "monitoring_type": "manual", "control_zone": "三", "standard_day_db": 74.0, "standard_evening_db": 70.0, "standard_night_db": 67.0, "total_exceed_count": 0, "source_name": "臺北市環境保護局", "latest_day_db": 64.6, "latest_evening_db": 64.7, "latest_night_db": 60.8}, "geometry": {"type": "Point", "coordinates": [121.4978, 25.128242]}}, {"type": "Feature", "properties": {"station_id": "2534423TN306", "station_name": "石牌點", "city": "臺北市", "district": "北投區", "noise_category": "traffic", "monitoring_type": "manual", "control_zone": "三", "standard_day_db": 74.0, "standard_evening_db": 70.0, "standard_night_db": 67.0, "total_exceed_count": 0, "source_name": "臺北市環境保護局", "latest_day_db": 63.2, "latest_evening_db": 60.4, "latest_night_db": 55.7}, "geometry": {"type": "Point", "coordinates": [121.517, 25.118428]}}, {"type": "Feature", "properties": {"station_id": "2534520EN014", "station_name": "北鐵點", "city": "臺北市", "district": "信義區", "noise_category": "environmental", "monitoring_type": "manual", "control_zone": "四", "standard_day_db": 65.0, "standard_evening_db": 60.0, "standard_night_db": 55.0, "total_exceed_count": 0, "source_name": "臺北市環境保護局", "latest_day_db": 64.2, "latest_evening_db": 57.4, "latest_night_db": 54.2}, "geometry": {"type": "Point", "coordinates": [121.5635, 25.046842]}}]}