{
"type": "FeatureCollection",
"name": "env_river_segments_metrotaipei",
"crs": { "type": "name", "properties": { "name": "urn:ogc:def:crs:OGC:1.3:CRS84" } },
"features": [
{ "type": "Feature", "properties": { "segment_id": "10100021-1031-1032", "river_id": "10100021", "river": "磺溪", "basin": "磺溪流域", "upstream_site_id": "1031", "upstream_site_name": "上磺溪橋", "upstream_city": "新北市", "upstream_rpi": 1.0, "downstream_site_id": "1032", "downstream_site_name": "磺溪橋", "downstream_city": "新北市", "downstream_rpi": 2.25, "sample_month": "2026-03-01", "geometry_source": "real_river", "data_time": "2026-05-02 22:46:52+08:00" }, "geometry": { "type": "LineString", "coordinates": [ [ 121.583462236885083, 25.176836654623713 ], [ 121.583371336404284, 25.176823471303386 ], [ 121.583286005569491, 25.17680800903381 ], [ 121.583232296841757, 25.176792422101901 ], [ 121.627844378897635, 25.221337306853506 ], [ 121.627995331042925, 25.221381804197094 ], [ 121.628025482637156, 25.221395217673997 ], [ 121.628106714855321, 25.221451295774859 ], [ 121.628302858493655, 25.221599419570566 ], [ 121.628433116894982, 25.221720740067912 ], [ 121.628506126900831, 25.221806192998255 ], [ 121.628589006087765, 25.221941256392757 ], [ 121.628622456340395, 25.22199302353561 ], [ 121.628681995112316, 25.222112387623163 ], [ 121.628796766046662, 25.222357904828193 ], [ 121.628911955254068, 25.222684669641225 ], [ 121.628976895944476, 25.223070328370223 ], [ 121.628973502659321, 25.223194473969667 ], [ 121.629107533281129, 25.223988342889747 ], [ 121.629133455006055, 25.224143960708872 ], [ 121.62915684930384, 25.224290561559286 ], [ 121.629179829026057, 25.224416851799713 ], [ 121.629266671486405, 25.224718910649752 ], [ 121.62930542174233, 25.224836105994459 ], [ 121.629355910681383, 25.224944223620874 ], [ 121.629428167144269, 25.22506353317106 ], [ 121.629594063711949, 25.225419421384892 ], [ 121.629767664470478, 25.225705311747799 ], [ 121.630025832326822, 25.226031466118215 ], [ 121.630281202656505, 25.226416312082886 ], [ 121.630494593133463, 25.226659150161236 ], [ 121.630642940286705, 25.226798446770626 ], [ 121.630709315995773, 25.226858151661929 ] ] } },
{ "type": "Feature", "properties": { "segment_id": "11400011-1001-1002", "river_id": "11400011", "river": "淡水河本流", "basin": "淡水河流域", "upstream_site_id": "1001", "upstream_site_name": "忠孝大橋", "upstream_city": "臺北市", "upstream_rpi": 6.5, "downstream_site_id": "1002", "downstream_site_name": "重陽大橋", "downstream_city": "臺北市", "downstream_rpi": 5.75, "sample_month": "2026-03-01", "geometry_source": "straight_line", "data_time": "2026-05-02 22:46:52+08:00" }, "geometry": { "type": "LineString", "coordinates": [ [ 121.500209, 25.051144 ], [ 121.5027969, 25.084174 ] ] } },
{ "type": "Feature", "properties": { "segment_id": "11400011-1002-1003", "river_id": "11400011", "river": "淡水河本流", "basin": "淡水河流域", "upstream_site_id": "1002", "upstream_site_name": "重陽大橋", "upstream_city": "臺北市", "upstream_rpi": 5.75, "downstream_site_id": "1003", "downstream_site_name": "關渡大橋", "downstream_city": "新北市", "downstream_rpi": 4.0, "sample_month": "2026-03-01", "geometry_source": "straight_line", "data_time": "2026-05-02 22:46:52+08:00" }, "geometry": { "type": "LineString", "coordinates": [ [ 121.5027969, 25.084174 ], [ 121.4572369, 25.1248169 ] ] } },
{ "type": "Feature", "properties": { "segment_id": "11400011-1003-1004", "river_id": "11400011", "river": "淡水河本流", "basin": "淡水河流域", "upstream_site_id": "1003", "upstream_site_name": "關渡大橋", "upstream_city": "新北市", "upstream_rpi": 4.0, "downstream_site_id": "1004", "downstream_site_name": "淡水河口", "downstream_city": "新北市", "downstream_rpi": 3.25, "sample_month": "2026-03-01", "geometry_source": "straight_line", "data_time": "2026-05-02 22:46:52+08:00" }, "geometry": { "type": "LineString", "coordinates": [ [ 121.4572369, 25.1248169 ], [ 121.422745, 25.1709011 ] ] } },
{ "type": "Feature", "properties": { "segment_id": "11401011-1014-1015", "river_id": "11401011", "river": "大漢溪", "basin": "淡水河流域", "upstream_site_id": "1014", "upstream_site_name": "板新取水口", "upstream_city": "新北市", "upstream_rpi": 1.0, "downstream_site_id": "1015", "downstream_site_name": "三鶯大橋", "downstream_city": "新北市", "downstream_rpi": 1.0, "sample_month": "2026-03-01", "geometry_source": "real_river", "data_time": "2026-05-02 22:46:52+08:00" }, "geometry": { "type": "LineString", "coordinates": [ [ 121.342201520364995, 24.931568452663385 ], [ 121.341973440866326, 24.931435801809464 ], [ 121.341581634872398, 24.931057492012592 ], [ 121.341421201411052, 24.930884055817771 ] ] } },
{ "type": "Feature", "properties": { "segment_id": "11401011-1015-1016", "river_id": "11401011", "river": "大漢溪", "basin": "淡水河流域", "upstream_site_id": "1015", "upstream_site_name": "三鶯大橋", "upstream_city": "新北市", "upstream_rpi": 1.0, "downstream_site_id": "1016", "downstream_site_name": "浮洲橋", "downstream_city": "新北市", "downstream_rpi": 4.0, "sample_month": "2026-03-01", "geometry_source": "real_river", "data_time": "2026-05-02 22:46:52+08:00" }, "geometry": { "type": "LineString", "coordinates": [ [ 121.435925807547179, 24.992049935053988 ], [ 121.435815266189707, 24.992043488058425 ], [ 121.435698033584174, 24.992070914596454 ], [ 121.435644167909857, 24.992071072313131 ], [ 121.435534515497366, 24.99205333783199 ], [ 121.435421251606215, 24.992064953991687 ], [ 121.435236746193212, 24.992065493792335 ], [ 121.43500010566116, 24.992118095292316 ] ] } },
{ "type": "Feature", "properties": { "segment_id": "11401011-1016-1017", "river_id": "11401011", "river": "大漢溪", "basin": "淡水河流域", "upstream_site_id": "1016", "upstream_site_name": "浮洲橋", "upstream_city": "新北市", "upstream_rpi": 4.0, "downstream_site_id": "1017", "downstream_site_name": "新海大橋", "downstream_city": "新北市", "downstream_rpi": 6.0, "sample_month": "2026-03-01", "geometry_source": "straight_line", "data_time": "2026-05-02 22:46:52+08:00" }, "geometry": { "type": "LineString", "coordinates": [ [ 121.4362461, 24.9950731 ], [ 121.45462, 25.0328661 ] ] } },
{ "type": "Feature", "properties": { "segment_id": "11401011-1017-1039", "river_id": "11401011", "river": "大漢溪", "basin": "淡水河流域", "upstream_site_id": "1017", "upstream_site_name": "新海大橋", "upstream_city": "新北市", "upstream_rpi": 6.0, "downstream_site_id": "1039", "downstream_site_name": "柑園二橋（取代柑園大橋）", "downstream_city": "新北市", "downstream_rpi": 2.75, "sample_month": "2026-03-01", "geometry_source": "straight_line", "data_time": "2026-05-02 22:46:52+08:00" }, "geometry": { "type": "LineString", "coordinates": [ [ 121.45462, 25.0328661 ], [ 121.4046111, 24.9682222 ] ] } },
{ "type": "Feature", "properties": { "segment_id": "11401111-1041-1042", "river_id": "11401111", "river": "三峽河", "basin": "淡水河流域", "upstream_site_id": "1041", "upstream_site_name": "三峽河抽水站(取代醒心橋)", "upstream_city": "新北市", "upstream_rpi": 1.0, "downstream_site_id": "1042", "downstream_site_name": "三峽大橋", "downstream_city": "新北市", "downstream_rpi": 5.75, "sample_month": "2026-03-01", "geometry_source": "real_river", "data_time": "2026-05-02 22:46:52+08:00" }, "geometry": { "type": "LineString", "coordinates": [ [ 121.374051196262585, 24.896655376275884 ], [ 121.374233804102033, 24.896565314815859 ], [ 121.371248456026663, 24.931046105165187 ], [ 121.371215286544754, 24.931025872818665 ], [ 121.371133045205227, 24.93094481779098 ], [ 121.371112555485027, 24.930922296633863 ], [ 121.371087074404556, 24.930886244597428 ], [ 121.371038203939477, 24.930789305916413 ], [ 121.371025375580217, 24.930741936288435 ], [ 121.370948563779521, 24.930200395332015 ], [ 121.370953806491144, 24.929884371862769 ], [ 121.370948150515815, 24.929441971322834 ], [ 121.370957387362196, 24.929013077002796 ], [ 121.37091438615721, 24.928602370383707 ], [ 121.370873734780062, 24.928356434784412 ], [ 121.370849370429411, 24.928279749990047 ], [ 121.370786232986475, 24.928067728558712 ], [ 121.370734242705211, 24.927961768617045 ], [ 121.370660189302569, 24.927824262461126 ], [ 121.370467795773223, 24.927535816779134 ], [ 121.370261269413049, 24.927195492376036 ], [ 121.370195974936209, 24.927089566181269 ], [ 121.370149911599015, 24.926999392600809 ], [ 121.370018084987151, 24.926683711989146 ], [ 121.369828001085097, 24.926235001016508 ], [ 121.369713819473418, 24.925921533516245 ], [ 121.369699700621808, 24.925856109747187 ], [ 121.369689892951229, 24.92557624134098 ], [ 121.369677953508486, 24.925515326561076 ], [ 121.369658298941758, 24.925461202507638 ], [ 121.36957610259573, 24.925393690302364 ], [ 121.369390226152461, 24.925317406171622 ] ] } },
{ "type": "Feature", "properties": { "segment_id": "11402011-1018-1019", "river_id": "11402011", "river": "新店溪", "basin": "淡水河流域", "upstream_site_id": "1018", "upstream_site_name": "碧潭吊橋(取代碧潭大橋)", "upstream_city": "新北市", "upstream_rpi": 1.0, "downstream_site_id": "1019", "downstream_site_name": "中正橋", "downstream_city": "新北市", "downstream_rpi": 3.5, "sample_month": "2026-03-01", "geometry_source": "straight_line", "data_time": "2026-05-02 22:46:52+08:00" }, "geometry": { "type": "LineString", "coordinates": [ [ 121.5357972, 24.9563194 ], [ 121.5142331, 25.0213069 ] ] } },
{ "type": "Feature", "properties": { "segment_id": "11402011-1019-1020", "river_id": "11402011", "river": "新店溪", "basin": "淡水河流域", "upstream_site_id": "1019", "upstream_site_name": "中正橋", "upstream_city": "新北市", "upstream_rpi": 3.5, "downstream_site_id": "1020", "downstream_site_name": "華中大橋", "downstream_city": "新北市", "downstream_rpi": 5.0, "sample_month": "2026-03-01", "geometry_source": "straight_line", "data_time": "2026-05-02 22:46:52+08:00" }, "geometry": { "type": "LineString", "coordinates": [ [ 121.5142331, 25.0213069 ], [ 121.49627, 25.0102131 ] ] } },
{ "type": "Feature", "properties": { "segment_id": "11402011-1020-1021", "river_id": "11402011", "river": "新店溪", "basin": "淡水河流域", "upstream_site_id": "1020", "upstream_site_name": "華中大橋", "upstream_city": "新北市", "upstream_rpi": 5.0, "downstream_site_id": "1021", "downstream_site_name": "華江大橋", "downstream_city": "新北市", "downstream_rpi": 6.5, "sample_month": "2026-03-01", "geometry_source": "real_river", "data_time": "2026-05-02 22:46:52+08:00" }, "geometry": { "type": "LineString", "coordinates": [ [ 121.488961854550709, 25.009869481497176 ], [ 121.488744290040557, 25.009816029269782 ], [ 121.488537225849086, 25.009755771305432 ], [ 121.488445568375283, 25.009722277481767 ], [ 121.488362072377527, 25.009704451293754 ], [ 121.488296524627941, 25.009704666523916 ], [ 121.488248903629909, 25.009717493148536 ], [ 121.488209242116412, 25.009733913708057 ], [ 121.488084355851512, 25.009797675008542 ], [ 121.48801897256439, 25.009839520485006 ], [ 121.487971394396894, 25.00986320711775 ], [ 121.487909876365308, 25.009877889272033 ], [ 121.487846300517035, 25.009874477756519 ], [ 121.487795110546472, 25.009857196251911 ], [ 121.487571616589264, 25.00975628113034 ], [ 121.487291046654661, 25.009608642436223 ], [ 121.487167915819896, 25.009554878438337 ], [ 121.487027517871482, 25.009519226682407 ], [ 121.482633030277569, 25.035554422375462 ], [ 121.482326843046863, 25.035575729947492 ], [ 121.482276950374796, 25.035566863659078 ], [ 121.482230022082788, 25.035524131931489 ], [ 121.482197289897513, 25.035452012872192 ], [ 121.482176604418086, 25.03538888310938 ], [ 121.482158591327291, 25.035296403262947 ], [ 121.482141108487511, 25.035260347480627 ], [ 121.482108469333298, 25.035228854929073 ], [ 121.482073671307347, 25.035199626404768 ], [ 121.482005535472965, 25.035118594278813 ], [ 121.481949777804004, 25.035035264945481 ], [ 121.481837095638497, 25.034807670137699 ], [ 121.481801352275966, 25.034694934436274 ], [ 121.481797398199774, 25.034634007397695 ], [ 121.481821776306987, 25.034453365818017 ], [ 121.481823174791643, 25.034414991742775 ], [ 121.481815017562624, 25.034387933807363 ], [ 121.481599067558534, 25.034043307892169 ] ] } },
{ "type": "Feature", "properties": { "segment_id": "11402011-1021-1271", "river_id": "11402011", "river": "新店溪", "basin": "淡水河流域", "upstream_site_id": "1021", "upstream_site_name": "華江大橋", "upstream_city": "新北市", "upstream_rpi": 6.5, "downstream_site_id": "1271", "downstream_site_name": "廣興橋(取代屈尺堰)", "downstream_city": "新北市", "downstream_rpi": 1.0, "sample_month": "2026-03-01", "geometry_source": "real_river", "data_time": "2026-05-02 22:46:52+08:00" }, "geometry": { "type": "LineString", "coordinates": [ [ 121.482633030277569, 25.035554422375462 ], [ 121.482326843046863, 25.035575729947492 ], [ 121.482276950374796, 25.035566863659078 ], [ 121.482230022082788, 25.035524131931489 ], [ 121.482197289897513, 25.035452012872192 ], [ 121.482176604418086, 25.03538888310938 ], [ 121.482158591327291, 25.035296403262947 ], [ 121.482141108487511, 25.035260347480627 ], [ 121.482108469333298, 25.035228854929073 ], [ 121.482073671307347, 25.035199626404768 ], [ 121.482005535472965, 25.035118594278813 ], [ 121.481949777804004, 25.035035264945481 ], [ 121.481837095638497, 25.034807670137699 ], [ 121.481801352275966, 25.034694934436274 ], [ 121.481797398199774, 25.034634007397695 ], [ 121.481821776306987, 25.034453365818017 ], [ 121.481823174791643, 25.034414991742775 ], [ 121.481815017562624, 25.034387933807363 ], [ 121.481599067558534, 25.034043307892169 ] ] } },
{ "type": "Feature", "properties": { "segment_id": "11402011-1271-1272", "river_id": "11402011", "river": "新店溪", "basin": "淡水河流域", "upstream_site_id": "1271", "upstream_site_name": "廣興橋(取代屈尺堰)", "upstream_city": "新北市", "upstream_rpi": 1.0, "downstream_site_id": "1272", "downstream_site_name": "青潭堰", "downstream_city": "新北市", "downstream_rpi": 1.0, "sample_month": "2026-03-01", "geometry_source": "real_river", "data_time": "2026-05-02 22:46:52+08:00" }, "geometry": { "type": "LineString", "coordinates": [ [ 121.545451480616876, 24.942411790372041 ], [ 121.545680449077594, 24.942408695045032 ], [ 121.545793533621548, 24.942399991943322 ] ] } },
{ "type": "Feature", "properties": { "segment_id": "11402011-1272-1347", "river_id": "11402011", "river": "新店溪", "basin": "淡水河流域", "upstream_site_id": "1272", "upstream_site_name": "青潭堰", "upstream_city": "新北市", "upstream_rpi": 1.0, "downstream_site_id": "1347", "downstream_site_name": "直潭堰取水口", "downstream_city": "新北市", "downstream_rpi": 1.0, "sample_month": "2026-03-01", "geometry_source": "real_river", "data_time": "2026-05-02 22:46:52+08:00" }, "geometry": { "type": "LineString", "coordinates": [ [ 121.545451480616876, 24.942411790372041 ], [ 121.545680449077594, 24.942408695045032 ], [ 121.545793533621548, 24.942399991943322 ], [ 121.534586282571894, 24.924755689883845 ], [ 121.534714757044824, 24.924773285845333 ], [ 121.534751632799882, 24.924786696098629 ], [ 121.534889902902037, 24.924851655573573 ], [ 121.534952526214283, 24.924880772998769 ], [ 121.534986917168425, 24.924891935023073 ], [ 121.535151756063712, 24.924947770566739 ], [ 121.535209370781288, 24.924963363346784 ], [ 121.535236606834474, 24.924965522655459 ], [ 121.5352647418229, 24.924960907474897 ], [ 121.535282657198664, 24.92495407189611 ], [ 121.535306711639734, 24.924935928844711 ], [ 121.535407182806935, 24.924845284641137 ], [ 121.535441447062766, 24.924827104902377 ], [ 121.53548159945737, 24.924811161093118 ], [ 121.535578021715651, 24.924785986800604 ], [ 121.53561047834971, 24.924779098944899 ], [ 121.535655919581529, 24.924769907345244 ], [ 121.535761701481491, 24.924762755990884 ], [ 121.535856074985958, 24.924764673908307 ], [ 121.535922632722119, 24.92477346301315 ], [ 121.536005917010613, 24.924786706124493 ], [ 121.536070667229893, 24.924806787088649 ], [ 121.536199636809343, 24.924867264609606 ], [ 121.536465649778279, 24.924994961514344 ], [ 121.536505929069563, 24.925008359082881 ], [ 121.536558255040035, 24.925017199114972 ], [ 121.536617048897526, 24.925019244592814 ], [ 121.536778579761403, 24.925025434356613 ], [ 121.536813869761829, 24.925029821463919 ], [ 121.536847961300509, 24.925043241219214 ], [ 121.536904996582763, 24.925067863767563 ], [ 121.53703057331407, 24.925130609862293 ], [ 121.537062170225539, 24.925139524383432 ], [ 121.537122589328433, 24.925159620487154 ] ] } },
{ "type": "Feature", "properties": { "segment_id": "11402011-1347-1273", "river_id": "11402011", "river": "新店溪", "basin": "淡水河流域", "upstream_site_id": "1347", "upstream_site_name": "直潭堰取水口", "upstream_city": "新北市", "upstream_rpi": 1.0, "downstream_site_id": "1273", "downstream_site_name": "秀朗橋", "downstream_city": "新北市", "downstream_rpi": 3.25, "sample_month": "2026-03-01", "geometry_source": "real_river", "data_time": "2026-05-02 22:46:52+08:00" }, "geometry": { "type": "LineString", "coordinates": [ [ 121.534586282571894, 24.924755689883845 ], [ 121.534714757044824, 24.924773285845333 ], [ 121.534751632799882, 24.924786696098629 ], [ 121.534889902902037, 24.924851655573573 ], [ 121.534952526214283, 24.924880772998769 ], [ 121.534986917168425, 24.924891935023073 ], [ 121.535151756063712, 24.924947770566739 ], [ 121.535209370781288, 24.924963363346784 ], [ 121.535236606834474, 24.924965522655459 ], [ 121.5352647418229, 24.924960907474897 ], [ 121.535282657198664, 24.92495407189611 ], [ 121.535306711639734, 24.924935928844711 ], [ 121.535407182806935, 24.924845284641137 ], [ 121.535441447062766, 24.924827104902377 ], [ 121.53548159945737, 24.924811161093118 ], [ 121.535578021715651, 24.924785986800604 ], [ 121.53561047834971, 24.924779098944899 ], [ 121.535655919581529, 24.924769907345244 ], [ 121.535761701481491, 24.924762755990884 ], [ 121.535856074985958, 24.924764673908307 ], [ 121.535922632722119, 24.92477346301315 ], [ 121.536005917010613, 24.924786706124493 ], [ 121.536070667229893, 24.924806787088649 ], [ 121.536199636809343, 24.924867264609606 ], [ 121.536465649778279, 24.924994961514344 ], [ 121.536505929069563, 24.925008359082881 ], [ 121.536558255040035, 24.925017199114972 ], [ 121.536617048897526, 24.925019244592814 ], [ 121.536778579761403, 24.925025434356613 ], [ 121.536813869761829, 24.925029821463919 ], [ 121.536847961300509, 24.925043241219214 ], [ 121.536904996582763, 24.925067863767563 ], [ 121.53703057331407, 24.925130609862293 ], [ 121.537062170225539, 24.925139524383432 ], [ 121.537122589328433, 24.925159620487154 ], [ 121.530817579671861, 24.986783219769215 ], [ 121.530713606054761, 24.986645919392323 ], [ 121.530656835938771, 24.986544561108111 ], [ 121.530602358538474, 24.986472534391048 ], [ 121.53029855562724, 24.986148622916062 ], [ 121.530271152667751, 24.986110353170279 ], [ 121.530258964948942, 24.986083313733342 ], [ 121.53025359627361, 24.985986285935464 ], [ 121.530238487314477, 24.985927660230328 ], [ 121.530211335874881, 24.985875848143433 ], [ 121.530181775997988, 24.985839842968478 ], [ 121.530019729097475, 24.985729831809891 ], [ 121.529756951179962, 24.985588582392115 ], [ 121.529686176235657, 24.98554143929163 ], [ 121.529469054197094, 24.985363916358782 ], [ 121.529442096504496, 24.985357241546058 ], [ 121.529422644737039, 24.985368595272664 ], [ 121.529331972846308, 24.985445652590975 ], [ 121.529304763592165, 24.985452520082355 ], [ 121.529272872804654, 24.985450376595402 ], [ 121.529175749823395, 24.985394299325804 ], [ 121.52907822082129, 24.985315654377064 ], [ 121.528865965547709, 24.985117801088141 ], [ 121.528670956750133, 24.984971795056786 ], [ 121.52863890204317, 24.984931284612738 ], [ 121.528623871183825, 24.984890713694487 ], [ 121.528573411386105, 24.984671973030103 ], [ 121.528548564220614, 24.984507307128951 ], [ 121.52851619130432, 24.984392319880584 ], [ 121.528518561362986, 24.984367485496122 ], [ 121.528528050444081, 24.984342625830323 ], [ 121.528564971258831, 24.984290585868568 ], [ 121.528567022135093, 24.984263495710518 ], [ 121.528562167032007, 24.984213861016709 ], [ 121.528451603361688, 24.983909571289175 ], [ 121.528366448108471, 24.983756403990739 ], [ 121.528283924468695, 24.983567116793203 ], [ 121.528281342229405, 24.983542299987601 ], [ 121.528301045481413, 24.983517404078174 ], [ 121.528305872448371, 24.983488047159724 ], [ 121.528296742058828, 24.9834519690652 ], [ 121.528268334623277, 24.983395647234381 ], [ 121.528196053466615, 24.983285315349967 ], [ 121.528139065268746, 24.983132047934635 ], [ 121.528086220907682, 24.982716964607789 ], [ 121.528075795812285, 24.982595128629558 ], [ 121.528055543267783, 24.982491382770107 ], [ 121.528036460262641, 24.982444055428878 ], [ 121.527883233145744, 24.982223422080438 ], [ 121.527857138540611, 24.982128724533862 ], [ 121.527850726602779, 24.982076838412254 ], [ 121.527842205857596, 24.982038501210887 ], [ 121.527847265324979, 24.981991088219917 ], [ 121.527854278234301, 24.981966237371356 ], [ 121.527875219395625, 24.981941337124997 ], [ 121.528184576362193, 24.981612988114261 ], [ 121.528325659655451, 24.981454503895957 ] ] } },
{ "type": "Feature", "properties": { "segment_id": "11402311-1022-1023", "river_id": "11402311", "river": "景美溪", "basin": "淡水河流域", "upstream_site_id": "1022", "upstream_site_name": "昇高大橋(取代深坑中正橋)", "upstream_city": "新北市", "upstream_rpi": 2.0, "downstream_site_id": "1023", "downstream_site_name": "萬壽橋", "downstream_city": "臺北市", "downstream_rpi": 4.0, "sample_month": "2026-03-01", "geometry_source": "real_river", "data_time": "2026-05-02 22:46:52+08:00" }, "geometry": { "type": "LineString", "coordinates": [ [ 121.621688887243735, 25.000113683113767 ], [ 121.621472026899468, 25.000064202300727 ], [ 121.572294384338718, 24.992912711628122 ], [ 121.572591223454594, 24.993011708959276 ], [ 121.573313673433915, 24.993196352414724 ] ] } },
{ "type": "Feature", "properties": { "segment_id": "11402311-1023-1024", "river_id": "11402311", "river": "景美溪", "basin": "淡水河流域", "upstream_site_id": "1023", "upstream_site_name": "萬壽橋", "upstream_city": "臺北市", "upstream_rpi": 4.0, "downstream_site_id": "1024", "downstream_site_name": "寶橋", "downstream_city": "新北市", "downstream_rpi": 2.0, "sample_month": "2026-03-01", "geometry_source": "real_river", "data_time": "2026-05-02 22:46:52+08:00" }, "geometry": { "type": "LineString", "coordinates": [ [ 121.554605785264229, 24.977258587179751 ], [ 121.554677115827758, 24.977289917942485 ], [ 121.554781255220703, 24.977321126399136 ], [ 121.554951261022993, 24.977338547872133 ], [ 121.555087480014208, 24.977207140050069 ], [ 121.555266614613771, 24.977120709937918 ], [ 121.555423245497536, 24.977054675637582 ], [ 121.555604459781406, 24.977017889060473 ], [ 121.555818675359433, 24.977023860056594 ], [ 121.556299268286594, 24.977126873360852 ], [ 121.556526416895068, 24.97719826307754 ], [ 121.556633389083075, 24.977285047820661 ], [ 121.556713178995992, 24.977404317035226 ], [ 121.556754485276016, 24.977473910312579 ], [ 121.556774007518712, 24.977561021998255 ], [ 121.556811070667294, 24.977902149193817 ], [ 121.556879182324678, 24.978462367437192 ], [ 121.556932418830257, 24.978753614224992 ], [ 121.556998882324422, 24.978947662836653 ], [ 121.557128549652859, 24.979218695578322 ], [ 121.557293823392484, 24.97950703181818 ], [ 121.557456061858218, 24.979728122474484 ], [ 121.557760983438641, 24.980075718858025 ], [ 121.557876258785498, 24.980184890428081 ] ] } },
{ "type": "Feature", "properties": { "segment_id": "11402311-1024-1274", "river_id": "11402311", "river": "景美溪", "basin": "淡水河流域", "upstream_site_id": "1024", "upstream_site_name": "寶橋", "upstream_city": "新北市", "upstream_rpi": 2.0, "downstream_site_id": "1274", "downstream_site_name": "楓林橋", "downstream_city": "新北市", "downstream_rpi": 1.0, "sample_month": "2026-03-01", "geometry_source": "real_river", "data_time": "2026-05-02 22:46:52+08:00" }, "geometry": { "type": "LineString", "coordinates": [ [ 121.554605785264229, 24.977258587179751 ], [ 121.554677115827758, 24.977289917942485 ], [ 121.554781255220703, 24.977321126399136 ], [ 121.554951261022993, 24.977338547872133 ], [ 121.555087480014208, 24.977207140050069 ], [ 121.555266614613771, 24.977120709937918 ], [ 121.555423245497536, 24.977054675637582 ], [ 121.555604459781406, 24.977017889060473 ], [ 121.555818675359433, 24.977023860056594 ], [ 121.556299268286594, 24.977126873360852 ], [ 121.556526416895068, 24.97719826307754 ], [ 121.556633389083075, 24.977285047820661 ], [ 121.556713178995992, 24.977404317035226 ], [ 121.556754485276016, 24.977473910312579 ], [ 121.556774007518712, 24.977561021998255 ], [ 121.556811070667294, 24.977902149193817 ], [ 121.556879182324678, 24.978462367437192 ], [ 121.556932418830257, 24.978753614224992 ], [ 121.556998882324422, 24.978947662836653 ], [ 121.557128549652859, 24.979218695578322 ], [ 121.557293823392484, 24.97950703181818 ], [ 121.557456061858218, 24.979728122474484 ], [ 121.557760983438641, 24.980075718858025 ], [ 121.557876258785498, 24.980184890428081 ] ] } },
{ "type": "Feature", "properties": { "segment_id": "11403011-1005-1009", "river_id": "11403011", "river": "基隆河", "basin": "淡水河流域", "upstream_site_id": "1005", "upstream_site_name": "介壽橋", "upstream_city": "新北市", "upstream_rpi": 1.0, "downstream_site_id": "1009", "downstream_site_name": "江北橋", "downstream_city": "新北市", "downstream_rpi": 2.0, "sample_month": "2026-03-01", "geometry_source": "real_river", "data_time": "2026-05-02 22:46:52+08:00" }, "geometry": { "type": "LineString", "coordinates": [ [ 121.804741891199228, 25.10648266009748 ], [ 121.804696638578363, 25.106385859123577 ], [ 121.804620630777634, 25.10623957110986 ], [ 121.804609387439257, 25.106178694323084 ], [ 121.804624848798312, 25.10598451228487 ], [ 121.804570093860875, 25.105808766848639 ], [ 121.804535493926195, 25.105682565061905 ], [ 121.804507666025316, 25.105502159595929 ], [ 121.804496939134665, 25.105425481302412 ], [ 121.804462782135388, 25.105319589685514 ], [ 121.804404811677699, 25.105220598094494 ], [ 121.804296838719594, 25.105103822025079 ], [ 121.804144676628354, 25.104957945062861 ], [ 121.804070506420942, 25.104892895504459 ], [ 121.803992027898516, 25.104737591030279 ], [ 121.803971091374237, 25.104615828914682 ], [ 121.803997132513132, 25.104475756473985 ], [ 121.804038842272604, 25.104125702173672 ], [ 121.804027584614303, 25.104015172361123 ], [ 121.803956321559752, 25.10387337045675 ], [ 121.803949755928059, 25.103864378223854 ], [ 121.660140165805018, 25.076087922793327 ], [ 121.660024858368203, 25.076094892439038 ], [ 121.659725501312849, 25.076071395784655 ], [ 121.659114607819674, 25.075737677857983 ], [ 121.658539723207966, 25.075433403064324 ], [ 121.658216090637296, 25.075272331145488 ], [ 121.656716889189582, 25.074685694513271 ], [ 121.656450203559444, 25.074594911550992 ], [ 121.656119130707168, 25.074479332007897 ], [ 121.65576952210688, 25.074330392650328 ], [ 121.65540168960743, 25.074206613635337 ], [ 121.655042770085416, 25.07403263292635 ], [ 121.654742645284529, 25.073856724493286 ], [ 121.654556348911399, 25.073715352024394 ], [ 121.654240821235078, 25.073387213876654 ], [ 121.654167930217284, 25.073252112172753 ], [ 121.654133819875014, 25.073186808064392 ], [ 121.654089437940982, 25.073053837731511 ], [ 121.654023945284408, 25.072911932197471 ], [ 121.653974034152895, 25.072729331097104 ], [ 121.653952857743349, 25.072533061092511 ], [ 121.653988113318064, 25.072289144435086 ], [ 121.654039535489105, 25.072056441783953 ], [ 121.654127637333332, 25.071789721744494 ], [ 121.654267893775426, 25.071486659000396 ], [ 121.654388519932056, 25.071278478743071 ] ] } },
{ "type": "Feature", "properties": { "segment_id": "11403011-1009-1010", "river_id": "11403011", "river": "基隆河", "basin": "淡水河流域", "upstream_site_id": "1009", "upstream_site_name": "江北橋", "upstream_city": "新北市", "upstream_rpi": 2.0, "downstream_site_id": "1010", "downstream_site_name": "民權大橋", "downstream_city": "臺北市", "downstream_rpi": 5.0, "sample_month": "2026-03-01", "geometry_source": "straight_line", "data_time": "2026-05-02 22:46:52+08:00" }, "geometry": { "type": "LineString", "coordinates": [ [ 121.65564, 25.068573 ], [ 121.5695161, 25.0634669 ] ] } },
{ "type": "Feature", "properties": { "segment_id": "11403011-1010-1011", "river_id": "11403011", "river": "基隆河", "basin": "淡水河流域", "upstream_site_id": "1010", "upstream_site_name": "民權大橋", "upstream_city": "臺北市", "upstream_rpi": 5.0, "downstream_site_id": "1011", "downstream_site_name": "大直橋", "downstream_city": "臺北市", "downstream_rpi": 3.5, "sample_month": "2026-03-01", "geometry_source": "straight_line", "data_time": "2026-05-02 22:46:52+08:00" }, "geometry": { "type": "LineString", "coordinates": [ [ 121.5695161, 25.0634669 ], [ 121.5444539, 25.0764581 ] ] } },
{ "type": "Feature", "properties": { "segment_id": "11403011-1011-1012", "river_id": "11403011", "river": "基隆河", "basin": "淡水河流域", "upstream_site_id": "1011", "upstream_site_name": "大直橋", "upstream_city": "臺北市", "upstream_rpi": 3.5, "downstream_site_id": "1012", "downstream_site_name": "百齡橋", "downstream_city": "臺北市", "downstream_rpi": 2.75, "sample_month": "2026-03-01", "geometry_source": "straight_line", "data_time": "2026-05-02 22:46:52+08:00" }, "geometry": { "type": "LineString", "coordinates": [ [ 121.5444539, 25.0764581 ], [ 121.5137258, 25.088435 ] ] } },
{ "type": "Feature", "properties": { "segment_id": "11403011-1012-1037", "river_id": "11403011", "river": "基隆河", "basin": "淡水河流域", "upstream_site_id": "1012", "upstream_site_name": "百齡橋", "upstream_city": "臺北市", "upstream_rpi": 2.75, "downstream_site_id": "1037", "downstream_site_name": "三貂嶺平溪線鐵道（取代貂嶺車站）", "downstream_city": "新北市", "downstream_rpi": 1.0, "sample_month": "2026-03-01", "geometry_source": "straight_line", "data_time": "2026-05-02 22:46:52+08:00" }, "geometry": { "type": "LineString", "coordinates": [ [ 121.5137258, 25.088435 ], [ 121.8199167, 25.0583333 ] ] } },
{ "type": "Feature", "properties": { "segment_id": "11403011-1037-1038", "river_id": "11403011", "river": "基隆河", "basin": "淡水河流域", "upstream_site_id": "1037", "upstream_site_name": "三貂嶺平溪線鐵道（取代貂嶺車站）", "upstream_city": "新北市", "upstream_rpi": 1.0, "downstream_site_id": "1038", "downstream_site_name": "侯硐車站", "downstream_city": "新北市", "downstream_rpi": 1.0, "sample_month": "2026-03-01", "geometry_source": "real_river", "data_time": "2026-05-02 22:46:52+08:00" }, "geometry": { "type": "LineString", "coordinates": [ [ 121.813976751458128, 25.067318730254069 ], [ 121.813964284675293, 25.067072775319378 ], [ 121.814005783761488, 25.066790410989672 ], [ 121.814134039436425, 25.066512085117445 ], [ 121.814545313408559, 25.065938784391555 ], [ 121.814687393265316, 25.06573712342265 ], [ 121.814799920918304, 25.065610108624888 ], [ 121.814866629935281, 25.065580400285931 ], [ 121.815001111484705, 25.065541291532039 ], [ 121.815050755040474, 25.06550716259898 ], [ 121.815097416778926, 25.065443707791577 ], [ 121.815274289178447, 25.065070316083894 ], [ 121.815311438486802, 25.065020456011105 ], [ 121.815403126992109, 25.064927411619525 ], [ 121.815511985252243, 25.064854586717537 ], [ 121.815604002259619, 25.064811196479639 ], [ 121.815700725003211, 25.064776808710899 ], [ 121.816470412466742, 25.064585239327556 ], [ 121.81661107210067, 25.06454383807365 ], [ 121.816673708655472, 25.064507380054234 ], [ 121.816721492920578, 25.064473260801929 ], [ 121.8167678885697, 25.0644165782317 ], [ 121.816927053631602, 25.064176450597671 ], [ 121.816974982771342, 25.064117502433071 ], [ 121.817041525763486, 25.064062966014745 ], [ 121.817107289213368, 25.064031004799062 ], [ 121.817258139209471, 25.063985032677252 ], [ 121.817334388531975, 25.063946242363144 ], [ 121.817380284048539, 25.063907619113028 ], [ 121.817509412941192, 25.063762454174416 ], [ 121.817559364806158, 25.063728322724739 ], [ 121.817646999038118, 25.063678184095096 ], [ 121.817877134689908, 25.063584375748519 ], [ 121.817952364450264, 25.063532048175748 ], [ 121.817989027631967, 25.063502503977386 ], [ 121.81847730179534, 25.063007766758574 ], [ 121.818635618020551, 25.062873725445669 ], [ 121.818761077895701, 25.062782749932353 ], [ 121.81893995566324, 25.062666651673151 ], [ 121.819381411894298, 25.062445278130244 ], [ 121.819511131894984, 25.062342993019843 ], [ 121.819702665817672, 25.062127511883798 ], [ 121.819908241938577, 25.061927752627259 ], [ 121.82000444110561, 25.061861765688313 ], [ 121.820175648310965, 25.061756993804018 ], [ 121.820267601195482, 25.061704572715215 ], [ 121.820338432495177, 25.061643239885999 ], [ 121.820425733416016, 25.06154344543414 ], [ 121.820489510068668, 25.061446038013724 ], [ 121.820718696461213, 25.060991094885573 ], [ 121.820827610701073, 25.060834752310491 ], [ 121.820895178305463, 25.060748608633268 ], [ 121.821016802026634, 25.060640394414214 ], [ 121.821084609671615, 25.060590363133517 ], [ 121.829803841278405, 25.0876265760647 ], [ 121.829786792741089, 25.087579273998692 ], [ 121.829828209478265, 25.087472962452132 ], [ 121.829994362103108, 25.08725761625621 ], [ 121.830168325161722, 25.08700611386768 ], [ 121.830319347212097, 25.086890160833942 ], [ 121.830612193101246, 25.086764385724699 ], [ 121.830980597226628, 25.086633672874385 ], [ 121.831298759607293, 25.086494898987144 ], [ 121.831512283215119, 25.086367310011081 ], [ 121.831609009433933, 25.086285515575419 ], [ 121.831753361598444, 25.086099631658815 ], [ 121.831907809786941, 25.085940775123152 ], [ 121.832202079155039, 25.085659255778548 ], [ 121.832322891803003, 25.085566040751573 ], [ 121.832448473276301, 25.085490854954962 ], [ 121.832550460220475, 25.085454170607729 ], [ 121.832760300343722, 25.085423651971201 ], [ 121.832936311991659, 25.085384294895213 ], [ 121.833155774888297, 25.085310838502327 ] ] } },
{ "type": "Feature", "properties": { "segment_id": "11403011-1038-1269", "river_id": "11403011", "river": "基隆河", "basin": "淡水河流域", "upstream_site_id": "1038", "upstream_site_name": "侯硐車站", "upstream_city": "新北市", "upstream_rpi": 1.0, "downstream_site_id": "1269", "downstream_site_name": "南湖大橋", "downstream_city": "臺北市", "downstream_rpi": 4.0, "sample_month": "2026-03-01", "geometry_source": "real_river", "data_time": "2026-05-02 22:46:52+08:00" }, "geometry": { "type": "LineString", "coordinates": [ [ 121.830875948758603, 25.088954460410896 ], [ 121.830796192820969, 25.088796918395165 ], [ 121.830755009739278, 25.088754266363786 ], [ 121.830653913494814, 25.088693893911529 ], [ 121.830428161331284, 25.088571023676447 ], [ 121.830369350366894, 25.088532984155229 ], [ 121.830395454820859, 25.088498983347861 ], [ 121.830625676114863, 25.088411929422104 ], [ 121.83068303966391, 25.088373239604742 ], [ 121.830652511803137, 25.088348583729001 ], [ 121.830494915909526, 25.088225331994998 ], [ 121.830175020150065, 25.087906627169172 ], [ 121.829888511110838, 25.087732182432891 ], [ 121.829803841278405, 25.0876265760647 ], [ 121.613747147493598, 25.063607012291026 ], [ 121.613755020407382, 25.063570867073654 ], [ 121.613782327218942, 25.063518842228628 ], [ 121.613862293139718, 25.063405659545872 ], [ 121.614081150708984, 25.063194849665258 ], [ 121.614132503188983, 25.063120154888598 ], [ 121.61421312173772, 25.063013740446983 ], [ 121.61430392137899, 25.062961452856136 ], [ 121.614566661970329, 25.062917481839257 ], [ 121.61471817823579, 25.062867199730121 ], [ 121.614812463340726, 25.062830696697564 ], [ 121.61488378388583, 25.062785260534909 ], [ 121.614926553619441, 25.062728657367028 ], [ 121.614966135962547, 25.062654011050558 ], [ 121.614997400842469, 25.062588427340977 ], [ 121.61505116816268, 25.062439239859266 ], [ 121.615104591828654, 25.062283282653986 ], [ 121.615130168877883, 25.062195152054546 ], [ 121.61513819325134, 25.0621274075455 ], [ 121.615117247823264, 25.061935646608546 ], [ 121.615096631386706, 25.061838679752096 ], [ 121.615047554464113, 25.061748601863833 ], [ 121.614981268451018, 25.061685679581789 ], [ 121.614880524666972, 25.061607100750305 ], [ 121.614648003465945, 25.061499725981555 ], [ 121.614551719967153, 25.061445955782222 ], [ 121.6144923044953, 25.061394289986541 ], [ 121.614466029106012, 25.061342487036214 ], [ 121.614445148595266, 25.061254549283728 ], [ 121.614440041651235, 25.061037895569132 ], [ 121.614455302483009, 25.060992691828677 ], [ 121.614482664856055, 25.060951952069548 ], [ 121.614548697034678, 25.060902024156761 ], [ 121.614669723964042, 25.060824784228966 ] ] } },
{ "type": "Feature", "properties": { "segment_id": "11403011-1269-1270", "river_id": "11403011", "river": "基隆河", "basin": "淡水河流域", "upstream_site_id": "1269", "upstream_site_name": "南湖大橋", "upstream_city": "臺北市", "upstream_rpi": 4.0, "downstream_site_id": "1270", "downstream_site_name": "成美橋", "downstream_city": "臺北市", "downstream_rpi": 5.75, "sample_month": "2026-03-01", "geometry_source": "straight_line", "data_time": "2026-05-02 22:46:52+08:00" }, "geometry": { "type": "LineString", "coordinates": [ [ 121.6120211, 25.063235 ], [ 121.583295, 25.0536689 ] ] } },
{ "type": "Feature", "properties": { "segment_id": "11403011-1270-1280", "river_id": "11403011", "river": "基隆河", "basin": "淡水河流域", "upstream_site_id": "1270", "upstream_site_name": "成美橋", "upstream_city": "臺北市", "upstream_rpi": 5.75, "downstream_site_id": "1280", "downstream_site_name": "中山橋", "downstream_city": "臺北市", "downstream_rpi": 3.5, "sample_month": "2026-03-01", "geometry_source": "straight_line", "data_time": "2026-05-02 22:46:52+08:00" }, "geometry": { "type": "LineString", "coordinates": [ [ 121.583295, 25.0536689 ], [ 121.5251139, 25.0738869 ] ] } },
{ "type": "Feature", "properties": { "segment_id": "26200021-1034-1035", "river_id": "26200021", "river": "雙溪", "basin": "雙溪流域", "upstream_site_id": "1034", "upstream_site_name": "新寮子橋（原為新寮大橋）", "upstream_city": "新北市", "upstream_rpi": 2.25, "downstream_site_id": "1035", "downstream_site_name": "貢寮大橋", "downstream_city": "新北市", "downstream_rpi": 3.25, "sample_month": "2026-03-01", "geometry_source": "straight_line", "data_time": "2026-05-02 22:46:52+08:00" }, "geometry": { "type": "LineString", "coordinates": [ [ 121.834769, 25.0317969 ], [ 121.9095289, 25.02071 ] ] } }
]
}
