{"type": "FeatureCollection", "crs": {"type": "name", "properties": {"name": "urn:ogc:def:crs:OGC:1.3:CRS84"}}, "features": [{"type": "Feature", "properties": {"station_id": "2533520EN012", "station_name": "長興點", "city": "臺北市", "district": "大安區", "noise_category": "environmental", "monitoring_type": "manual", "control_zone": "二", "standard_day_db": 55.0, "standard_evening_db": 50.0, "standard_night_db": 45.0, "total_exceed_count": 0, "source_name": "臺北市環境保護局", "latest_day_db": 54.9, "latest_evening_db": 51.1, "latest_night_db": 48.7}, "geometry": {"type": "Point", "coordinates": [121.5504, 25.014569]}}, {"type": "Feature", "properties": {"station_id": "2533520TN307", "station_name": "新生點", "city": "臺北市", "district": "大安區", "noise_category": "traffic", "monitoring_type": "manual", "control_zone": "三", "standard_day_db": 74.0, "standard_evening_db": 70.0, "standard_night_db": 67.0, "total_exceed_count": 0, "source_name": "臺北市環境保護局", "latest_day_db": 67.6, "latest_evening_db": 66.2, "latest_night_db": 57.8}, "geometry": {"type": "Point", "coordinates": [121.5331, 25.031753]}}, {"type": "Feature", "properties": {"station_id": "2533720EN013", "station_name": "福星點", "city": "臺北市", "district": "萬華區", "noise_category": "environmental", "monitoring_type": "manual", "control_zone": "三", "standard_day_db": 60.0, "standard_evening_db": 55.0, "standard_night_db": 50.0, "total_exceed_count": 0, "source_name": "臺北市環境保護局", "latest_day_db": 51.7, "latest_evening_db": 49.6, "latest_night_db": 47.7}, "geometry": {"type": "Point", "coordinates": [121.508, 25.046691]}}, {"type": "Feature", "properties": {"station_id": "2533720TN207", "station_name": "青年點", "city": "臺北市", "district": "萬華區", "noise_category": "traffic", "monitoring_type": "manual", "control_zone": "二", "standard_day_db": 71.0, "standard_evening_db": 69.0, "standard_night_db": 63.0, "total_exceed_count": 0, "source_name": "臺北市環境保護局", "latest_day_db": 61.5, "latest_evening_db": 59.5, "latest_night_db": 57.5}, "geometry": {"type": "Point", "coordinates": [121.5037, 25.020467]}}, {"type": "Feature", "properties": {"station_id": "2533820EN007", "station_name": "太原點", "city": "臺北市", "district": "大同區", "noise_category": "environmental", "monitoring_type": "manual", "control_zone": "三", "standard_day_db": 60.0, "standard_evening_db": 55.0, "standard_night_db": 50.0, "total_exceed_count": 0, "source_name": "臺北市環境保護局", "latest_day_db": 50.4, "latest_evening_db": 47.5, "latest_night_db": 43.6}, "geometry": {"type": "Point", "coordinates": [121.5166, 25.054378]}}, {"type": "Feature", "properties": {"station_id": "2533820EN202", "station_name": "永樂點", "city": "臺北市", "district": "大同區", "noise_category": "environmental", "monitoring_type": "manual", "control_zone": "二", "standard_day_db": 55.0, "standard_evening_db": 50.0, "standard_night_db": 45.0, "total_exceed_count": 0, "source_name": "臺北市環境保護局", "latest_day_db": 55.2, "latest_evening_db": 51.6, "latest_night_db": 46.6}, "geometry": {"type": "Point", "coordinates": [121.509977, 25.061281]}}, {"type": "Feature", "properties": {"station_id": "2533920TN404", "station_name": "大同點", "city": "臺北市", "district": "中山區", "noise_category": "traffic", "monitoring_type": "manual", "control_zone": "四", "standard_day_db": 76.0, "standard_evening_db": 75.0, "standard_night_db": 72.0, "total_exceed_count": 0, "source_name": "臺北市環境保護局", "latest_day_db": 73.2, "latest_evening_db": 73.1, "latest_night_db": 68.4}, "geometry": {"type": "Point", "coordinates": [121.5222, 25.066522]}}, {"type": "Feature", "properties": {"station_id": "2534020TN210", "station_name": "萬興點", "city": "臺北市", "district": "文山區", "noise_category": "traffic", "monitoring_type": "manual", "control_zone": "二", "standard_day_db": 71.0, "standard_evening_db": 69.0, "standard_night_db": 63.0, "total_exceed_count": 0, "source_name": "臺北市環境保護局", "latest_day_db": 66.9, "latest_evening_db": 65.3, "latest_night_db": 59.5}, "geometry": {"type": "Point", "coordinates": [121.576906, 24.9897]}}, {"type": "Feature", "properties": {"station_id": "2534120TN209", "station_name": "舊二點", "city": "臺北市", "district": "南港區", "noise_category": "traffic", "monitoring_type": "manual", "control_zone": "二", "standard_day_db": 71.0, "standard_evening_db": 69.0, "standard_night_db": 63.0, "total_exceed_count": 0, "source_name": "臺北市環境保護局", "latest_day_db": 62.5, "latest_evening_db": 59.7, "latest_night_db": 56.5}, "geometry": {"type": "Point", "coordinates": [121.6207, 25.041386]}}, {"type": "Feature", "properties": {"station_id": "2534120TN405", "station_name": "南港點", "city": "臺北市", "district": "南港區", "noise_category": "traffic", "monitoring_type": "manual", "control_zone": "四", "standard_day_db": 76.0, "standard_evening_db": 75.0, "standard_night_db": 72.0, "total_exceed_count": 0, "source_name": "臺北市環境保護局", "latest_day_db": 68.4, "latest_evening_db": 65.7, "latest_night_db": 59.6}, "geometry": {"type": "Point", "coordinates": [121.5895, 25.053381]}}, {"type": "Feature", "properties": {"station_id": "2534220EN005", "station_name": "安康點", "city": "臺北市", "district": "內湖區", "noise_category": "environmental", "monitoring_type": "manual", "control_zone": "四", "standard_day_db": 65.0, "standard_evening_db": 60.0, "standard_night_db": 55.0, "total_exceed_count": 0, "source_name": "臺北市環境保護局", "latest_day_db": 57.2, "latest_evening_db": 55.9, "latest_night_db": 50.4}, "geometry": {"type": "Point", "coordinates": [121.6042, 25.061601]}}, {"type": "Feature", "properties": {"station_id": "2534220TN308", "station_name": "民權點", "city": "臺北市", "district": "內湖區", "noise_category": "traffic", "monitoring_type": "manual", "control_zone": "三", "standard_day_db": 74.0, "standard_evening_db": 70.0, "standard_night_db": 67.0, "total_exceed_count": 0, "source_name": "臺北市環境保護局", "latest_day_db": 65.9, "latest_evening_db": 64.0, "latest_night_db": 57.6}, "geometry": {"type": "Point", "coordinates": [121.601142, 25.0671]}}, {"type": "Feature", "properties": {"station_id": "2534320EN008", "station_name": "社子點", "city": "臺北市", "district": "士林區", "noise_category": "environmental", "monitoring_type": "manual", "control_zone": "三", "standard_day_db": 60.0, "standard_evening_db": 55.0, "standard_night_db": 50.0, "total_exceed_count": 0, "source_name": "臺北市環境保護局", "latest_day_db": 47.8, "latest_evening_db": 42.9, "latest_night_db": 41.2}, "geometry": {"type": "Point", "coordinates": [121.4881, 25.103161]}}, {"type": "Feature", "properties": {"station_id": "2534320TN103", "station_name": "格致點", "city": "臺北市", "district": "士林區", "noise_category": "traffic", "monitoring_type": "manual", "control_zone": "一", "standard_day_db": null, "standard_evening_db": null, "standard_night_db": null, "total_exceed_count": 0, "source_name": "臺北市環境保護局", "latest_day_db": 61.1, "latest_evening_db": 57.3, "latest_night_db": 57.3}, "geometry": {"type": "Point", "coordinates": [121.5125, 25.114931]}}, {"type": "Feature", "properties": {"station_id": "2534320TN208", "station_name": "至善點", "city": "臺北市", "district": "士林區", "noise_category": "traffic", "monitoring_type": "manual", "control_zone": "二", "standard_day_db": 71.0, "standard_evening_db": 69.0, "standard_night_db": 63.0, "total_exceed_count": 0, "source_name": "臺北市環境保護局", "latest_day_db": 67.4, "latest_evening_db": 66.0, "latest_night_db": 62.5}, "geometry": {"type": "Point", "coordinates": [121.5575, 25.106714]}}, {"type": "Feature", "properties": {"station_id": "2534420EN010", "station_name": "關渡點", "city": "臺北市", "district": "北投區", "noise_category": "environmental", "monitoring_type": "manual", "control_zone": "二", "standard_day_db": 55.0, "standard_evening_db": 50.0, "standard_night_db": 45.0, "total_exceed_count": 0, "source_name": "臺北市環境保護局", "latest_day_db": 50.4, "latest_evening_db": 42.7, "latest_night_db": 41.1}, "geometry": {"type": "Point", "coordinates": [121.472486, 25.119811]}}, {"type": "Feature", "properties": {"station_id": "2534420EN011", "station_name": "湖田點", "city": "臺北市", "district": "北投區", "noise_category": "environmental", "monitoring_type": "manual", "control_zone": "一", "standard_day_db": 55.0, "standard_evening_db": 50.0, "standard_night_db": 45.0, "total_exceed_count": 0, "source_name": "臺北市環境保護局", "latest_day_db": 40.8, "latest_evening_db": 43.3, "latest_night_db": 40.7}, "geometry": {"type": "Point", "coordinates": [121.538867, 25.169251]}}, {"type": "Feature", "properties": {"station_id": "2534420EN012", "station_name": "鞍部點", "city": "臺北市", "district": "北投區", "noise_category": "environmental", "monitoring_type": "manual", "control_zone": "一", "standard_day_db": 55.0, "standard_evening_db": 50.0, "standard_night_db": 45.0, "total_exceed_count": 0, "source_name": "臺北市環境保護局", "latest_day_db": 42.4, "latest_evening_db": 38.4, "latest_night_db": 38.1}, "geometry": {"type": "Point", "coordinates": [121.527797, 25.182664]}}, {"type": "Feature", "properties": {"station_id": "2534420EN301", "station_name": "洲美點", "city": "臺北市", "district": "北投區", "noise_category": "environmental", "monitoring_type": "manual", "control_zone": "三", "standard_day_db": 60.0, "standard_evening_db": 55.0, "standard_night_db": 50.0, "total_exceed_count": 0, "source_name": "臺北市環境保護局", "latest_day_db": 48.2, "latest_evening_db": 45.1, "latest_night_db": 45.8}, "geometry": {"type": "Point", "coordinates": [121.502, 25.108358]}}, {"type": "Feature", "properties": {"station_id": "2534420TN105", "station_name": "陽金點", "city": "臺北市", "district": "北投區", "noise_category": "traffic", "monitoring_type": "manual", "control_zone": "一", "standard_day_db": null, "standard_evening_db": null, "standard_night_db": null, "total_exceed_count": 0, "source_name": "臺北市環境保護局", "latest_day_db": 59.4, "latest_evening_db": 58.6, "latest_night_db": 60.5}, "geometry": {"type": "Point", "coordinates": [121.5433, 25.179506]}}, {"type": "Feature", "properties": {"station_id": "2534420TN304", "station_name": "大業點", "city": "臺北市", "district": "北投區", "noise_category": "traffic", "monitoring_type": "manual", "control_zone": "三", "standard_day_db": 74.0, "standard_evening_db": 70.0, "standard_night_db": 67.0, "total_exceed_count": 0, "source_name": "臺北市環境保護局", "latest_day_db": 64.6, "latest_evening_db": 64.7, "latest_night_db": 60.8}, "geometry": {"type": "Point", "coordinates": [121.4978, 25.128242]}}, {"type": "Feature", "properties": {"station_id": "2534423TN306", "station_name": "石牌點", "city": "臺北市", "district": "北投區", "noise_category": "traffic", "monitoring_type": "manual", "control_zone": "三", "standard_day_db": 74.0, "standard_evening_db": 70.0, "standard_night_db": 67.0, "total_exceed_count": 0, "source_name": "臺北市環境保護局", "latest_day_db": 63.2, "latest_evening_db": 60.4, "latest_night_db": 55.7}, "geometry": {"type": "Point", "coordinates": [121.517, 25.118428]}}, {"type": "Feature", "properties": {"station_id": "2534520EN014", "station_name": "北鐵點", "city": "臺北市", "district": "信義區", "noise_category": "environmental", "monitoring_type": "manual", "control_zone": "四", "standard_day_db": 65.0, "standard_evening_db": 60.0, "standard_night_db": 55.0, "total_exceed_count": 0, "source_name": "臺北市環境保護局", "latest_day_db": 64.2, "latest_evening_db": 57.4, "latest_night_db": 54.2}, "geometry": {"type": "Point", "coordinates": [121.5635, 25.046842]}}]}