{
	"type": "FeatureCollection",
	"name": "env_river_segments_taipei",
	"crs": {
		"type": "name",
		"properties": {
			"name": "urn:ogc:def:crs:OGC:1.3:CRS84"
		}
	},
	"features": [
		{
			"type": "Feature",
			"properties": {
				"segment_id": "11400011-1001-1002",
				"river_id": "11400011",
				"river": "淡水河本流",
				"basin": "淡水河流域",
				"upstream_site_id": "1001",
				"upstream_site_name": "忠孝大橋",
				"upstream_city": "臺北市",
				"upstream_rpi": 6.5,
				"downstream_site_id": "1002",
				"downstream_site_name": "重陽大橋",
				"downstream_city": "臺北市",
				"downstream_rpi": 5.75,
				"sample_month": "2026-03-01",
				"geometry_source": "curated_route",
				"data_time": "2026-05-02 22:46:52+08:00"
			},
			"geometry": {
				"type": "LineString",
				"coordinates": [
					[
						121.500209,
						25.051144
					],
					[
						121.5006867,
						25.0524022
					],
					[
						121.5026434,
						25.0539884
					],
					[
						121.5050989,
						25.0571087
					],
					[
						121.5059448,
						25.0592957
					],
					[
						121.5063558,
						25.0623359
					],
					[
						121.5070186,
						25.0667713
					],
					[
						121.5074331,
						25.0699056
					],
					[
						121.5070838,
						25.0729095
					],
					[
						121.506421,
						25.0760348
					],
					[
						121.5054205,
						25.0796486
					],
					[
						121.5042127,
						25.0826064
					],
					[
						121.5027969,
						25.084174
					]
				]
			}
		},
		{
			"type": "Feature",
			"properties": {
				"segment_id": "11403011-1010-1011",
				"river_id": "11403011",
				"river": "基隆河",
				"basin": "淡水河流域",
				"upstream_site_id": "1010",
				"upstream_site_name": "民權大橋",
				"upstream_city": "臺北市",
				"upstream_rpi": 5.0,
				"downstream_site_id": "1011",
				"downstream_site_name": "大直橋",
				"downstream_city": "臺北市",
				"downstream_rpi": 3.5,
				"sample_month": "2026-03-01",
				"geometry_source": "curated_route",
				"data_time": "2026-05-02 22:46:52+08:00"
			},
			"geometry": {
				"type": "LineString",
				"coordinates": [
					[
						121.5695161,
						25.0634669
					],
					[
						121.5695432,
						25.0636132
					],
					[
						121.5695798,
						25.0645911
					],
					[
						121.5713627,
						25.0674263
					],
					[
						121.5720125,
						25.0697425
					],
					[
						121.5719613,
						25.0720865
					],
					[
						121.5714911,
						25.0737583
					],
					[
						121.5712621,
						25.0740969
					],
					[
						121.5705959,
						25.075082
					],
					[
						121.5697,
						25.0757123
					],
					[
						121.5686486,
						25.0756832
					],
					[
						121.5678225,
						25.0751681
					],
					[
						121.5645911,
						25.0730985
					],
					[
						121.5629807,
						25.072455
					],
					[
						121.560929,
						25.0725612
					],
					[
						121.5579085,
						25.0740784
					],
					[
						121.5562311,
						25.0746859
					],
					[
						121.5559515,
						25.0747611
					],
					[
						121.5542714,
						25.0753401
					],
					[
						121.5524687,
						25.0755049
					],
					[
						121.5482462,
						25.0758897
					],
					[
						121.5452274,
						25.0761469
					],
					[
						121.5444539,
						25.0764581
					]
				]
			}
		},
		{
			"type": "Feature",
			"properties": {
				"segment_id": "11403011-1011-1012",
				"river_id": "11403011",
				"river": "基隆河",
				"basin": "淡水河流域",
				"upstream_site_id": "1011",
				"upstream_site_name": "大直橋",
				"upstream_city": "臺北市",
				"upstream_rpi": 3.5,
				"downstream_site_id": "1012",
				"downstream_site_name": "百齡橋",
				"downstream_city": "臺北市",
				"downstream_rpi": 2.75,
				"sample_month": "2026-03-01",
				"geometry_source": "curated_route",
				"data_time": "2026-05-02 22:46:52+08:00"
			},
			"geometry": {
				"type": "LineString",
				"coordinates": [
					[
						121.5444539,
						25.0764581
					],
					[
						121.5338475,
						25.0768279
					],
					[
						121.5322006,
						25.0769264
					],
					[
						121.5295352,
						25.0768571
					],
					[
						121.5287918,
						25.0765776
					],
					[
						121.5284248,
						25.0763032
					],
					[
						121.5281083,
						25.0759055
					],
					[
						121.527942,
						25.0754917
					],
					[
						121.5279835,
						25.0749844
					],
					[
						121.5281029,
						25.0742187
					],
					[
						121.5279451,
						25.0734682
					],
					[
						121.5278025,
						25.0731838
					],
					[
						121.5275397,
						25.0729408
					],
					[
						121.5272637,
						25.0728156
					],
					[
						121.5270622,
						25.072727
					],
					[
						121.5268289,
						25.0727052
					],
					[
						121.5265553,
						25.0727197
					],
					[
						121.5263273,
						25.0727853
					],
					[
						121.526026,
						25.0729212
					],
					[
						121.5256755,
						25.0732129
					],
					[
						121.525431,
						25.0734874
					],
					[
						121.5250385,
						25.0741672
					],
					[
						121.5246633,
						25.0748021
					],
					[
						121.5234734,
						25.076443
					],
					[
						121.5224552,
						25.0771227
					],
					[
						121.5218277,
						25.07766
					],
					[
						121.5173687,
						25.0794436
					],
					[
						121.5162429,
						25.0801707
					],
					[
						121.5149235,
						25.0819413
					],
					[
						121.5144054,
						25.0835823
					],
					[
						121.513772,
						25.0870752
					],
					[
						121.5137258,
						25.088435
					]
				]
			}
		},
		{
			"type": "Feature",
			"properties": {
				"segment_id": "11403011-1269-1270",
				"river_id": "11403011",
				"river": "基隆河",
				"basin": "淡水河流域",
				"upstream_site_id": "1269",
				"upstream_site_name": "南湖大橋",
				"upstream_city": "臺北市",
				"upstream_rpi": 4.0,
				"downstream_site_id": "1270",
				"downstream_site_name": "成美橋",
				"downstream_city": "臺北市",
				"downstream_rpi": 5.75,
				"sample_month": "2026-03-01",
				"geometry_source": "curated_route",
				"data_time": "2026-05-02 22:46:52+08:00"
			},
			"geometry": {
				"type": "LineString",
				"coordinates": [
					[
						121.6120211,
						25.063235
					],
					[
						121.6115717,
						25.0623569
					],
					[
						121.6105828,
						25.0612534
					],
					[
						121.6093465,
						25.0604318
					],
					[
						121.6078137,
						25.0598548
					],
					[
						121.6056282,
						25.0592465
					],
					[
						121.6023153,
						25.0590149
					],
					[
						121.5986962,
						25.0589751
					],
					[
						121.5981189,
						25.0589989
					],
					[
						121.5968569,
						25.0594732
					],
					[
						121.595431,
						25.0599534
					],
					[
						121.5937316,
						25.0600471
					],
					[
						121.5917271,
						25.0588085
					],
					[
						121.5907285,
						25.0578111
					],
					[
						121.5896299,
						25.05674
					],
					[
						121.5883253,
						25.0556632
					],
					[
						121.586555,
						25.0546038
					],
					[
						121.5845338,
						25.0540174
					],
					[
						121.583295,
						25.0536689
					]
				]
			}
		},
		{
			"type": "Feature",
			"properties": {
				"segment_id": "11403011-1270-1280",
				"river_id": "11403011",
				"river": "基隆河",
				"basin": "淡水河流域",
				"upstream_site_id": "1270",
				"upstream_site_name": "成美橋",
				"upstream_city": "臺北市",
				"upstream_rpi": 5.75,
				"downstream_site_id": "1280",
				"downstream_site_name": "中山橋",
				"downstream_city": "臺北市",
				"downstream_rpi": 3.5,
				"sample_month": "2026-03-01",
				"geometry_source": "curated_route",
				"data_time": "2026-05-02 22:46:52+08:00"
			},
			"geometry": {
				"type": "LineString",
				"coordinates": [
					[
						121.583295,
						25.0536689
					],
					[
						121.5820769,
						25.0533953
					],
					[
						121.579893,
						25.0529154
					],
					[
						121.5788475,
						25.0526857
					],
					[
						121.5748578,
						25.0518224
					],
					[
						121.5741998,
						25.0517617
					],
					[
						121.5736067,
						25.0517883
					],
					[
						121.5730868,
						25.05192
					],
					[
						121.5726843,
						25.0520883
					],
					[
						121.5720439,
						25.0527361
					],
					[
						121.5718732,
						25.0530207
					],
					[
						121.5717389,
						25.0534086
					],
					[
						121.5716817,
						25.0539931
					],
					[
						121.5717099,
						25.0550262
					],
					[
						121.5712504,
						25.059296
					],
					[
						121.5700038,
						25.0626728
					],
					[
						121.5695432,
						25.0636132
					],
					[
						121.5695798,
						25.0645911
					],
					[
						121.5713627,
						25.0674263
					],
					[
						121.5720125,
						25.0697425
					],
					[
						121.5719613,
						25.0720865
					],
					[
						121.5714911,
						25.0737583
					],
					[
						121.5712621,
						25.0740969
					],
					[
						121.5705959,
						25.075082
					],
					[
						121.5697,
						25.0757123
					],
					[
						121.5686486,
						25.0756832
					],
					[
						121.5678225,
						25.0751681
					],
					[
						121.5645911,
						25.0730985
					],
					[
						121.5629807,
						25.072455
					],
					[
						121.560929,
						25.0725612
					],
					[
						121.5579085,
						25.0740784
					],
					[
						121.5562311,
						25.0746859
					],
					[
						121.5559515,
						25.0747611
					],
					[
						121.5542714,
						25.0753401
					],
					[
						121.5524687,
						25.0755049
					],
					[
						121.5482462,
						25.0758897
					],
					[
						121.5452274,
						25.0761469
					],
					[
						121.5338475,
						25.0768279
					],
					[
						121.5322006,
						25.0769264
					],
					[
						121.5295352,
						25.0768571
					],
					[
						121.5287918,
						25.0765776
					],
					[
						121.5284248,
						25.0763032
					],
					[
						121.5281083,
						25.0759055
					],
					[
						121.527942,
						25.0754917
					],
					[
						121.5279835,
						25.0749844
					],
					[
						121.5281029,
						25.0742187
					],
					[
						121.5279451,
						25.0734682
					],
					[
						121.5278025,
						25.0731838
					],
					[
						121.5275397,
						25.0729408
					],
					[
						121.5272637,
						25.0728156
					],
					[
						121.5270622,
						25.072727
					],
					[
						121.5268289,
						25.0727052
					],
					[
						121.5265553,
						25.0727197
					],
					[
						121.5263273,
						25.0727853
					],
					[
						121.526026,
						25.0729212
					],
					[
						121.5256755,
						25.0732129
					],
					[
						121.525431,
						25.0734874
					],
					[
						121.5251139,
						25.0738869
					]
				]
			}
		}
	]
}