{
	"type": "FeatureCollection",
	"name": "env_river_sites_metrotaipei",
	"crs": {
		"type": "name",
		"properties": {
			"name": "urn:ogc:def:crs:OGC:1.3:CRS84"
		}
	},
	"features": [
		{
			"type": "Feature",
			"properties": {
				"site_id": "1001",
				"site_name": "忠孝大橋",
				"city": "臺北市",
				"district": "中正區",
				"basin": "淡水河流域",
				"river": "淡水河本流",
				"wq_std_grade": "丁",
				"sample_month": "2026-03-01",
				"rpi_value": 6.5,
				"risk_level": "severe",
				"rpi_flag": "complete",
				"source_name": "環境部",
				"data_time": "2026-05-02 22:46:52+08:00"
			},
			"geometry": {
				"type": "Point",
				"coordinates": [
					121.500209,
					25.051144
				]
			}
		},
		{
			"type": "Feature",
			"properties": {
				"site_id": "1002",
				"site_name": "重陽大橋",
				"city": "臺北市",
				"district": "士林區",
				"basin": "淡水河流域",
				"river": "淡水河本流",
				"wq_std_grade": "丁",
				"sample_month": "2026-03-01",
				"rpi_value": 5.75,
				"risk_level": "moderate",
				"rpi_flag": "complete",
				"source_name": "環境部",
				"data_time": "2026-05-02 22:46:52+08:00"
			},
			"geometry": {
				"type": "Point",
				"coordinates": [
					121.5027969,
					25.084174
				]
			}
		},
		{
			"type": "Feature",
			"properties": {
				"site_id": "1003",
				"site_name": "關渡大橋",
				"city": "新北市",
				"district": "八里區",
				"basin": "淡水河流域",
				"river": "淡水河本流",
				"wq_std_grade": "丁",
				"sample_month": "2026-03-01",
				"rpi_value": 4.0,
				"risk_level": "moderate",
				"rpi_flag": "complete",
				"source_name": "環境部",
				"data_time": "2026-05-02 22:46:52+08:00"
			},
			"geometry": {
				"type": "Point",
				"coordinates": [
					121.4572369,
					25.1248169
				]
			}
		},
		{
			"type": "Feature",
			"properties": {
				"site_id": "1004",
				"site_name": "淡水河口",
				"city": "新北市",
				"district": "淡水區",
				"basin": "淡水河流域",
				"river": "淡水河本流",
				"wq_std_grade": "丁",
				"sample_month": "2026-03-01",
				"rpi_value": 3.25,
				"risk_level": "moderate",
				"rpi_flag": "complete",
				"source_name": "環境部",
				"data_time": "2026-05-02 22:46:52+08:00"
			},
			"geometry": {
				"type": "Point",
				"coordinates": [
					121.422745,
					25.1709011
				]
			}
		},
		{
			"type": "Feature",
			"properties": {
				"site_id": "1016",
				"site_name": "浮洲橋",
				"city": "新北市",
				"district": "板橋區",
				"basin": "淡水河流域",
				"river": "大漢溪",
				"wq_std_grade": "丙",
				"sample_month": "2026-03-01",
				"rpi_value": 4.0,
				"risk_level": "moderate",
				"rpi_flag": "complete",
				"source_name": "環境部",
				"data_time": "2026-05-02 22:46:52+08:00"
			},
			"geometry": {
				"type": "Point",
				"coordinates": [
					121.4362461,
					24.9950731
				]
			}
		},
		{
			"type": "Feature",
			"properties": {
				"site_id": "1017",
				"site_name": "新海大橋",
				"city": "新北市",
				"district": "板橋區",
				"basin": "淡水河流域",
				"river": "大漢溪",
				"wq_std_grade": "丁",
				"sample_month": "2026-03-01",
				"rpi_value": 6.0,
				"risk_level": "moderate",
				"rpi_flag": "complete",
				"source_name": "環境部",
				"data_time": "2026-05-02 22:46:52+08:00"
			},
			"geometry": {
				"type": "Point",
				"coordinates": [
					121.45462,
					25.0328661
				]
			}
		},
		{
			"type": "Feature",
			"properties": {
				"site_id": "1039",
				"site_name": "柑園二橋（取代柑園大橋）",
				"city": "新北市",
				"district": "樹林區",
				"basin": "淡水河流域",
				"river": "大漢溪",
				"wq_std_grade": "丙",
				"sample_month": "2026-03-01",
				"rpi_value": 2.75,
				"risk_level": "mild",
				"rpi_flag": "complete",
				"source_name": "環境部",
				"data_time": "2026-05-02 22:46:52+08:00"
			},
			"geometry": {
				"type": "Point",
				"coordinates": [
					121.4046111,
					24.9682222
				]
			}
		},
		{
			"type": "Feature",
			"properties": {
				"site_id": "1018",
				"site_name": "碧潭吊橋(取代碧潭大橋)",
				"city": "新北市",
				"district": "新店區",
				"basin": "淡水河流域",
				"river": "新店溪",
				"wq_std_grade": "乙",
				"sample_month": "2026-03-01",
				"rpi_value": 1.0,
				"risk_level": "unpolluted",
				"rpi_flag": "complete",
				"source_name": "環境部",
				"data_time": "2026-05-02 22:46:52+08:00"
			},
			"geometry": {
				"type": "Point",
				"coordinates": [
					121.5357972,
					24.9563194
				]
			}
		},
		{
			"type": "Feature",
			"properties": {
				"site_id": "1019",
				"site_name": "中正橋",
				"city": "新北市",
				"district": "永和區",
				"basin": "淡水河流域",
				"river": "新店溪",
				"wq_std_grade": "丙",
				"sample_month": "2026-03-01",
				"rpi_value": 3.5,
				"risk_level": "moderate",
				"rpi_flag": "complete",
				"source_name": "環境部",
				"data_time": "2026-05-02 22:46:52+08:00"
			},
			"geometry": {
				"type": "Point",
				"coordinates": [
					121.5142331,
					25.0213069
				]
			}
		},
		{
			"type": "Feature",
			"properties": {
				"site_id": "1020",
				"site_name": "華中大橋",
				"city": "新北市",
				"district": "中和區",
				"basin": "淡水河流域",
				"river": "新店溪",
				"wq_std_grade": "丙",
				"sample_month": "2026-03-01",
				"rpi_value": 5.0,
				"risk_level": "moderate",
				"rpi_flag": "complete",
				"source_name": "環境部",
				"data_time": "2026-05-02 22:46:52+08:00"
			},
			"geometry": {
				"type": "Point",
				"coordinates": [
					121.49627,
					25.0102131
				]
			}
		},
		{
			"type": "Feature",
			"properties": {
				"site_id": "1021",
				"site_name": "華江大橋",
				"city": "新北市",
				"district": "板橋區",
				"basin": "淡水河流域",
				"river": "新店溪",
				"wq_std_grade": "丙",
				"sample_month": "2026-03-01",
				"rpi_value": 6.5,
				"risk_level": "severe",
				"rpi_flag": "complete",
				"source_name": "環境部",
				"data_time": "2026-05-02 22:46:52+08:00"
			},
			"geometry": {
				"type": "Point",
				"coordinates": [
					121.483509,
					25.034898
				]
			}
		},
		{
			"type": "Feature",
			"properties": {
				"site_id": "1272",
				"site_name": "青潭堰",
				"city": "新北市",
				"district": "新店區",
				"basin": "淡水河流域",
				"river": "新店溪",
				"wq_std_grade": "甲",
				"sample_month": "2026-03-01",
				"rpi_value": 1.0,
				"risk_level": "unpolluted",
				"rpi_flag": "complete",
				"source_name": "環境部",
				"data_time": "2026-05-02 22:46:52+08:00"
			},
			"geometry": {
				"type": "Point",
				"coordinates": [
					121.5458333,
					24.9429167
				]
			}
		},
		{
			"type": "Feature",
			"properties": {
				"site_id": "1347",
				"site_name": "直潭堰取水口",
				"city": "新北市",
				"district": "新店區",
				"basin": "淡水河流域",
				"river": "新店溪",
				"wq_std_grade": "甲",
				"sample_month": "2026-03-01",
				"rpi_value": 1.0,
				"risk_level": "unpolluted",
				"rpi_flag": "complete",
				"source_name": "環境部",
				"data_time": "2026-05-02 22:46:52+08:00"
			},
			"geometry": {
				"type": "Point",
				"coordinates": [
					121.533135,
					24.92541
				]
			}
		},
		{
			"type": "Feature",
			"properties": {
				"site_id": "1273",
				"site_name": "秀朗橋",
				"city": "新北市",
				"district": "中和區",
				"basin": "淡水河流域",
				"river": "新店溪",
				"wq_std_grade": "乙",
				"sample_month": "2026-03-01",
				"rpi_value": 3.25,
				"risk_level": "moderate",
				"rpi_flag": "complete",
				"source_name": "環境部",
				"data_time": "2026-05-02 22:46:52+08:00"
			},
			"geometry": {
				"type": "Point",
				"coordinates": [
					121.5285731,
					24.988715
				]
			}
		},
		{
			"type": "Feature",
			"properties": {
				"site_id": "1022",
				"site_name": "昇高大橋(取代深坑中正橋)",
				"city": "新北市",
				"district": "深坑區",
				"basin": "淡水河流域",
				"river": "景美溪",
				"wq_std_grade": "乙",
				"sample_month": "2026-03-01",
				"rpi_value": 2.0,
				"risk_level": "unpolluted",
				"rpi_flag": "complete",
				"source_name": "環境部",
				"data_time": "2026-05-02 22:46:52+08:00"
			},
			"geometry": {
				"type": "Point",
				"coordinates": [
					121.6214397,
					25.0012058
				]
			}
		},
		{
			"type": "Feature",
			"properties": {
				"site_id": "1023",
				"site_name": "萬壽橋",
				"city": "臺北市",
				"district": "文山區",
				"basin": "淡水河流域",
				"river": "景美溪",
				"wq_std_grade": "丙",
				"sample_month": "2026-03-01",
				"rpi_value": 4.0,
				"risk_level": "moderate",
				"rpi_flag": "complete",
				"source_name": "環境部",
				"data_time": "2026-05-02 22:46:52+08:00"
			},
			"geometry": {
				"type": "Point",
				"coordinates": [
					121.572045,
					24.9920531
				]
			}
		},
		{
			"type": "Feature",
			"properties": {
				"site_id": "1005",
				"site_name": "介壽橋",
				"city": "新北市",
				"district": "瑞芳區",
				"basin": "淡水河流域",
				"river": "基隆河",
				"wq_std_grade": "乙",
				"sample_month": "2026-03-01",
				"rpi_value": 1.0,
				"risk_level": "unpolluted",
				"rpi_flag": "complete",
				"source_name": "環境部",
				"data_time": "2026-05-02 22:46:52+08:00"
			},
			"geometry": {
				"type": "Point",
				"coordinates": [
					121.8054,
					25.1064039
				]
			}
		},
		{
			"type": "Feature",
			"properties": {
				"site_id": "1009",
				"site_name": "江北橋",
				"city": "新北市",
				"district": "汐止區",
				"basin": "淡水河流域",
				"river": "基隆河",
				"wq_std_grade": "丙",
				"sample_month": "2026-03-01",
				"rpi_value": 2.0,
				"risk_level": "unpolluted",
				"rpi_flag": "complete",
				"source_name": "環境部",
				"data_time": "2026-05-02 22:46:52+08:00"
			},
			"geometry": {
				"type": "Point",
				"coordinates": [
					121.65564,
					25.068573
				]
			}
		},
		{
			"type": "Feature",
			"properties": {
				"site_id": "1010",
				"site_name": "民權大橋",
				"city": "臺北市",
				"district": "松山區",
				"basin": "淡水河流域",
				"river": "基隆河",
				"wq_std_grade": "丁",
				"sample_month": "2026-03-01",
				"rpi_value": 5.0,
				"risk_level": "moderate",
				"rpi_flag": "complete",
				"source_name": "環境部",
				"data_time": "2026-05-02 22:46:52+08:00"
			},
			"geometry": {
				"type": "Point",
				"coordinates": [
					121.5695161,
					25.0634669
				]
			}
		},
		{
			"type": "Feature",
			"properties": {
				"site_id": "1011",
				"site_name": "大直橋",
				"city": "臺北市",
				"district": "中山區",
				"basin": "淡水河流域",
				"river": "基隆河",
				"wq_std_grade": "丁",
				"sample_month": "2026-03-01",
				"rpi_value": 3.5,
				"risk_level": "moderate",
				"rpi_flag": "complete",
				"source_name": "環境部",
				"data_time": "2026-05-02 22:46:52+08:00"
			},
			"geometry": {
				"type": "Point",
				"coordinates": [
					121.5444539,
					25.0764581
				]
			}
		},
		{
			"type": "Feature",
			"properties": {
				"site_id": "1012",
				"site_name": "百齡橋",
				"city": "臺北市",
				"district": "士林區",
				"basin": "淡水河流域",
				"river": "基隆河",
				"wq_std_grade": "丁",
				"sample_month": "2026-03-01",
				"rpi_value": 2.75,
				"risk_level": "mild",
				"rpi_flag": "complete",
				"source_name": "環境部",
				"data_time": "2026-05-02 22:46:52+08:00"
			},
			"geometry": {
				"type": "Point",
				"coordinates": [
					121.5137258,
					25.088435
				]
			}
		},
		{
			"type": "Feature",
			"properties": {
				"site_id": "1037",
				"site_name": "三貂嶺平溪線鐵道（取代貂嶺車站）",
				"city": "新北市",
				"district": "瑞芳區",
				"basin": "淡水河流域",
				"river": "基隆河",
				"wq_std_grade": "乙",
				"sample_month": "2026-03-01",
				"rpi_value": 1.0,
				"risk_level": "unpolluted",
				"rpi_flag": "complete",
				"source_name": "環境部",
				"data_time": "2026-05-02 22:46:52+08:00"
			},
			"geometry": {
				"type": "Point",
				"coordinates": [
					121.8199167,
					25.0583333
				]
			}
		},
		{
			"type": "Feature",
			"properties": {
				"site_id": "1038",
				"site_name": "侯硐車站",
				"city": "新北市",
				"district": "瑞芳區",
				"basin": "淡水河流域",
				"river": "基隆河",
				"wq_std_grade": "乙",
				"sample_month": "2026-03-01",
				"rpi_value": 1.0,
				"risk_level": "unpolluted",
				"rpi_flag": "complete",
				"source_name": "環境部",
				"data_time": "2026-05-02 22:46:52+08:00"
			},
			"geometry": {
				"type": "Point",
				"coordinates": [
					121.82867,
					25.0881539
				]
			}
		},
		{
			"type": "Feature",
			"properties": {
				"site_id": "1269",
				"site_name": "南湖大橋",
				"city": "臺北市",
				"district": "南港區",
				"basin": "淡水河流域",
				"river": "基隆河",
				"wq_std_grade": "丁",
				"sample_month": "2026-03-01",
				"rpi_value": 4.0,
				"risk_level": "moderate",
				"rpi_flag": "complete",
				"source_name": "環境部",
				"data_time": "2026-05-02 22:46:52+08:00"
			},
			"geometry": {
				"type": "Point",
				"coordinates": [
					121.6120211,
					25.063235
				]
			}
		},
		{
			"type": "Feature",
			"properties": {
				"site_id": "1270",
				"site_name": "成美橋",
				"city": "臺北市",
				"district": "內湖區",
				"basin": "淡水河流域",
				"river": "基隆河",
				"wq_std_grade": "丁",
				"sample_month": "2026-03-01",
				"rpi_value": 5.75,
				"risk_level": "moderate",
				"rpi_flag": "complete",
				"source_name": "環境部",
				"data_time": "2026-05-02 22:46:52+08:00"
			},
			"geometry": {
				"type": "Point",
				"coordinates": [
					121.583295,
					25.0536689
				]
			}
		},
		{
			"type": "Feature",
			"properties": {
				"site_id": "1280",
				"site_name": "中山橋",
				"city": "臺北市",
				"district": "士林區",
				"basin": "淡水河流域",
				"river": "基隆河",
				"wq_std_grade": "丁",
				"sample_month": "2026-03-01",
				"rpi_value": 3.5,
				"risk_level": "moderate",
				"rpi_flag": "complete",
				"source_name": "環境部",
				"data_time": "2026-05-02 22:46:52+08:00"
			},
			"geometry": {
				"type": "Point",
				"coordinates": [
					121.5251139,
					25.0738869
				]
			}
		}
	]
}